geom,id,name,coordinates,totaldocks,docksavailable,bikesavailable,classicbikesavailable,smartbikesavailable,electricbikesavailable,rewardbikesavailable,rewarddocksavailable,kioskstatus,kioskpublicstatus,kioskconnectionstatus,kiosktype,addressstreet,addresscity,addressstate,addresszipcode,bikes,closetime,eventend,eventstart,iseventbased,isvirtual,kioskid,notes,opentime,publictext,timezone,trikesavailable,latitude,longitude,newcolname
POINT(-75.1547 39.96892),3016,"11th & Poplar, John F. Street Community Center","{-75.1547,39.96892}",15,11,2,2,0,0,2,11,FullService,Active,Active,1,1100 Poplar St.,Philadelphia,PA,19123,"{""{ \""dockNumber\"": 2, \""isElectric\"": false, \""isAvailable\"": true, \""battery\"": null }"",""{ \""dockNumber\"": 3, \""isElectric\"": false, \""isAvailable\"": true, \""battery\"": null }"",""{ \""dockNumber\"": 13, \""isElectric\"": false, \""isAvailable\"": false, \""battery\"": null }"",""{ \""dockNumber\"": 15, \""isElectric\"": false, \""isAvailable\"": false, \""battery\"": null }""}",,,,false,false,3016,,,,,0,39.96892,-75.1547,
POINT(-75.18323 39.95472),3022,Amtrak 30th Street Station,"{-75.18323,39.95472}",21,20,0,0,0,0,0,21,FullService,Active,Active,1,2933 Market Street,Philadelphia,PA,19104,"{""{ \""dockNumber\"": 3, \""isElectric\"": false, \""isAvailable\"": false, \""battery\"": null }""}",,,,false,false,3022,,,,,0,39.95472,-75.18323,
POINT(-75.20908 39.94822),3024,"43rd & Chester, Clark Park","{-75.20908,39.94822}",19,14,3,1,0,1,4,14,FullService,Active,Active,1,598 S. 43rd St.,Philadelphia,PA,19104,"{""{ \""dockNumber\"": 2, \""isElectric\"": false, \""isAvailable\"": true, \""battery\"": null }"",""{ \""dockNumber\"": 9, \""isElectric\"": false, \""isAvailable\"": true, \""battery\"": null }"",""{ \""dockNumber\"": 11, \""isElectric\"": false, \""isAvailable\"": false, \""battery\"": null }"",""{ \""dockNumber\"": 18, \""isElectric\"": true, \""isAvailable\"": true, \""battery\"": 0.25 }"",""{ \""dockNumber\"": 19, \""isElectric\"": true, \""isAvailable\"": true, \""battery\"": 0.80000000000000004 }""}",,,,false,false,3024,,,,,0,39.94822,-75.20908,
POINT(-75.14541 39.93445),3072,Front & Carpenter,"{-75.14541,39.93445}",25,22,2,2,0,0,2,23,FullService,Active,Active,1,925 S. Front St.,Philadelphia,PA,19147,"{""{ \""dockNumber\"": 14, \""isElectric\"": false, \""isAvailable\"": false, \""battery\"": null }"",""{ \""dockNumber\"": 19, \""isElectric\"": false, \""isAvailable\"": true, \""battery\"": null }"",""{ \""dockNumber\"": 22, \""isElectric\"": false, \""isAvailable\"": true, \""battery\"": null }""}",,,,false,false,3072,,,,,0,39.93445,-75.14541,
POINT(-75.19781 39.97472),3113,Philadelphia Zoo,"{-75.19781,39.97472}",12,9,3,3,0,0,3,9,FullService,Active,Active,1,1046 N. 34th Street,Philadelphia,PA,19104,"{""{ \""dockNumber\"": 1, \""isElectric\"": false, \""isAvailable\"": true, \""battery\"": null }"",""{ \""dockNumber\"": 3, \""isElectric\"": false, \""isAvailable\"": true, \""battery\"": null }"",""{ \""dockNumber\"": 5, \""isElectric\"": false, \""isAvailable\"": true, \""battery\"": null }""}",,,,false,false,3113,,,,,0,39.97472,-75.19781,
POINT(-75.19962 39.95121),3159,38th & Spruce,"{-75.19962,39.95121}",23,22,0,0,0,0,0,23,FullService,Active,Active,1,3804 spruce street,Philadelphia,PA,19104,"{""{ \""dockNumber\"": 12, \""isElectric\"": false, \""isAvailable\"": false, \""battery\"": null }""}",,,,false,false,3159,,,,,0,39.95121,-75.19962,
POINT(-75.17063 39.95174),3206,18th & Chestnut,"{-75.17063,39.95174}",21,19,1,1,0,0,1,20,FullService,Active,Active,1,1805 Chestnut St,Philadelphia,PA,19103,"{""{ \""dockNumber\"": 15, \""isElectric\"": false, \""isAvailable\"": true, \""battery\"": null }"",""{ \""dockNumber\"": 20, \""isElectric\"": false, \""isAvailable\"": false, \""battery\"": null }""}",,,,false,false,3206,,,,,0,39.95174,-75.17063,
POINT(-75.16374 39.95378),3004,Municipal Services Building Plaza,"{-75.16374,39.95378}",30,13,15,13,0,1,16,13,FullService,Active,Active,1,1401 John F. Kennedy Blvd.,Philadelphia,PA,19102,"{""{ \""dockNumber\"": 4, \""isElectric\"": false, \""isAvailable\"": true, \""battery\"": null }"",""{ \""dockNumber\"": 6, \""isElectric\"": false, \""isAvailable\"": true, \""battery\"": null }"",""{ \""dockNumber\"": 7, \""isElectric\"": false, \""isAvailable\"": true, \""battery\"": null }"",""{ \""dockNumber\"": 9, \""isElectric\"": false, \""isAvailable\"": true, \""battery\"": null }"",""{ \""dockNumber\"": 12, \""isElectric\"": false, \""isAvailable\"": true, \""battery\"": null }"",""{ \""dockNumber\"": 16, \""isElectric\"": true, \""isAvailable\"": true, \""battery\"": 0.80000000000000004 }"",""{ \""dockNumber\"": 17, \""isElectric\"": false, \""isAvailable\"": false, \""battery\"": null }"",""{ \""dockNumber\"": 18, \""isElectric\"": false, \""isAvailable\"": true, \""battery\"": null }"",""{ \""dockNumber\"": 20, \""isElectric\"": false, \""isAvailable\"": true, \""battery\"": null }"",""{ \""dockNumber\"": 22, \""isElectric\"": false, \""isAvailable\"": true, \""battery\"": null }"",""{ \""dockNumber\"": 23, \""isElectric\"": false, \""isAvailable\"": false, \""battery\"": null }"",""{ \""dockNumber\"": 25, \""isElectric\"": false, \""isAvailable\"": true, \""battery\"": null }"",""{ \""dockNumber\"": 26, \""isElectric\"": false, \""isAvailable\"": true, \""battery\"": null }"",""{ \""dockNumber\"": 27, \""isElectric\"": false, \""isAvailable\"": true, \""battery\"": null }"",""{ \""dockNumber\"": 28, \""isElectric\"": false, \""isAvailable\"": true, \""battery\"": null }"",""{ \""dockNumber\"": 29, \""isElectric\"": false, \""isAvailable\"": true, \""battery\"": null }"",""{ \""dockNumber\"": 30, \""isElectric\"": true, \""isAvailable\"": true, \""battery\"": 0.25 }""}",,,,false,false,3004,,,,,0,39.95378,-75.16374,
POINT(-75.15672 39.95005),3033,10th & Chestnut,"{-75.15672,39.95005}",20,20,0,0,0,0,0,20,FullService,Active,Active,1,921 Chestnut St.,Philadelphia,PA,19107,{},,,,false,false,3033,,,,,0,39.95005,-75.15672,
POINT(-75.20311 39.9522),3006,40th & Spruce,"{-75.20311,39.9522}",17,15,1,1,0,0,1,16,FullService,Active,Active,1,246 S. 40th St.,Philadelphia,PA,19104,"{""{ \""dockNumber\"": 9, \""isElectric\"": false, \""isAvailable\"": true, \""battery\"": null }"",""{ \""dockNumber\"": 12, \""isElectric\"": false, \""isAvailable\"": false, \""battery\"": null }""}",,,,false,false,3006,,,,,0,39.9522,-75.20311,
POINT(-75.15695 39.94732),3052,9th & Locust,"{-75.15695,39.94732}",25,24,1,1,0,0,1,24,FullService,Active,Active,1,923 Locust St.,Philadelphia,PA,19107,"{""{ \""dockNumber\"": 23, \""isElectric\"": false, \""isAvailable\"": true, \""battery\"": null }""}",,,,false,false,3052,,,,,0,39.94732,-75.15695,
POINT(-75.15457 39.95112),3055,8th & Market,"{-75.15457,39.95112}",15,15,0,0,0,0,0,15,FullService,Active,Active,1,834 Market St.,Philadelphia,PA,19107,{},,,,false,false,3055,,,,,0,39.95112,-75.15457,
POINT(-75.15426 39.95339),3050,9th & Arch,"{-75.15426,39.95339}",15,11,4,4,0,0,4,11,FullService,Active,Active,1,813 Arch St.,Philadelphia,PA,19107,"{""{ \""dockNumber\"": 1, \""isElectric\"": false, \""isAvailable\"": true, \""battery\"": null }"",""{ \""dockNumber\"": 6, \""isElectric\"": false, \""isAvailable\"": true, \""battery\"": null }"",""{ \""dockNumber\"": 8, \""isElectric\"": false, \""isAvailable\"": true, \""battery\"": null }"",""{ \""dockNumber\"": 11, \""isElectric\"": false, \""isAvailable\"": true, \""battery\"": null }""}",,,,false,false,3050,,,,,0,39.95339,-75.15426,
POINT(-75.17232 39.95725),3187,20th & Race,"{-75.17232,39.95725}",19,16,1,1,0,0,2,16,FullService,Active,Active,1,20th & Race,Philadelphia,PA,19103,"{""{ \""dockNumber\"": 7, \""isElectric\"": false, \""isAvailable\"": true, \""battery\"": null }"",""{ \""dockNumber\"": 11, \""isElectric\"": false, \""isAvailable\"": false, \""battery\"": null }"",""{ \""dockNumber\"": 19, \""isElectric\"": false, \""isAvailable\"": false, \""battery\"": null }""}",,,,false,false,3187,,,,,0,39.95725,-75.17232,
POINT(-75.14403 39.94733),3005,"Welcome Park, NPS","{-75.14403,39.94733}",13,4,9,9,0,0,9,4,FullService,Active,Active,1,191 S. 2nd St.,Philadelphia,PA,19106,"{""{ \""dockNumber\"": 1, \""isElectric\"": false, \""isAvailable\"": true, \""battery\"": null }"",""{ \""dockNumber\"": 3, \""isElectric\"": false, \""isAvailable\"": true, \""battery\"": null }"",""{ \""dockNumber\"": 4, \""isElectric\"": false, \""isAvailable\"": true, \""battery\"": null }"",""{ \""dockNumber\"": 6, \""isElectric\"": false, \""isAvailable\"": true, \""battery\"": null }"",""{ \""dockNumber\"": 7, \""isElectric\"": false, \""isAvailable\"": true, \""battery\"": null }"",""{ \""dockNumber\"": 8, \""isElectric\"": false, \""isAvailable\"": true, \""battery\"": null }"",""{ \""dockNumber\"": 9, \""isElectric\"": false, \""isAvailable\"": true, \""battery\"": null }"",""{ \""dockNumber\"": 11, \""isElectric\"": false, \""isAvailable\"": true, \""battery\"": null }"",""{ \""dockNumber\"": 13, \""isElectric\"": false, \""isAvailable\"": true, \""battery\"": null }""}",,,,false,false,3005,,,,,0,39.94733,-75.14403,
POINT(-75.15993 39.94517),3007,"11th & Pine, Kahn Park","{-75.15993,39.94517}",20,10,9,8,0,1,9,10,FullService,Unavailable,Unresponsive,1,328 S. 11th St.,Philadelphia,PA,19107,"{""{ \""dockNumber\"": 1, \""isElectric\"": false, \""isAvailable\"": true, \""battery\"": null }"",""{ \""dockNumber\"": 2, \""isElectric\"": false, \""isAvailable\"": true, \""battery\"": null }"",""{ \""dockNumber\"": 7, \""isElectric\"": false, \""isAvailable\"": true, \""battery\"": null }"",""{ \""dockNumber\"": 11, \""isElectric\"": false, \""isAvailable\"": false, \""battery\"": null }"",""{ \""dockNumber\"": 12, \""isElectric\"": false, \""isAvailable\"": true, \""battery\"": null }"",""{ \""dockNumber\"": 13, \""isElectric\"": false, \""isAvailable\"": true, \""battery\"": null }"",""{ \""dockNumber\"": 15, \""isElectric\"": false, \""isAvailable\"": true, \""battery\"": null }"",""{ \""dockNumber\"": 16, \""isElectric\"": true, \""isAvailable\"": true, \""battery\"": 0.80000000000000004 }"",""{ \""dockNumber\"": 17, \""isElectric\"": false, \""isAvailable\"": true, \""battery\"": null }"",""{ \""dockNumber\"": 20, \""isElectric\"": false, \""isAvailable\"": true, \""battery\"": null }""}",,,,false,false,3007,,,,,0,39.94517,-75.15993,
POINT(-75.15055 39.98078),3008,Temple University Station,"{-75.15055,39.98078}",19,15,4,2,0,2,4,15,FullService,Active,Active,1,1076 Berks Street,Philadelphia,PA,19122,"{""{ \""dockNumber\"": 1, \""isElectric\"": true, \""isAvailable\"": true, \""battery\"": 0.80000000000000004 }"",""{ \""dockNumber\"": 2, \""isElectric\"": false, \""isAvailable\"": true, \""battery\"": null }"",""{ \""dockNumber\"": 4, \""isElectric\"": true, \""isAvailable\"": true, \""battery\"": 0.80000000000000004 }"",""{ \""dockNumber\"": 9, \""isElectric\"": false, \""isAvailable\"": true, \""battery\"": null }""}",,,,false,false,3008,,,,,0,39.98078,-75.15055,
POINT(-75.18982 39.95576),3009,33rd & Market,"{-75.18982,39.95576}",14,11,2,2,0,0,2,12,FullService,Active,Active,1,3318 Market St.,Philadelphia,PA,19104,"{""{ \""dockNumber\"": 9, \""isElectric\"": false, \""isAvailable\"": true, \""battery\"": null }"",""{ \""dockNumber\"": 11, \""isElectric\"": false, \""isAvailable\"": false, \""battery\"": null }"",""{ \""dockNumber\"": 13, \""isElectric\"": false, \""isAvailable\"": true, \""battery\"": null }""}",,,,false,false,3009,,,,,0,39.95576,-75.18982,
POINT(-75.16618 39.94711),3010,15th & Spruce,"{-75.16618,39.94711}",22,8,13,13,0,0,13,8,FullService,Active,Active,1,1483 Spruce St.,Philadelphia,PA,19102,"{""{ \""dockNumber\"": 1, \""isElectric\"": false, \""isAvailable\"": false, \""battery\"": null }"",""{ \""dockNumber\"": 2, \""isElectric\"": false, \""isAvailable\"": true, \""battery\"": null }"",""{ \""dockNumber\"": 3, \""isElectric\"": false, \""isAvailable\"": true, \""battery\"": null }"",""{ \""dockNumber\"": 4, \""isElectric\"": false, \""isAvailable\"": true, \""battery\"": null }"",""{ \""dockNumber\"": 5, \""isElectric\"": false, \""isAvailable\"": true, \""battery\"": null }"",""{ \""dockNumber\"": 7, \""isElectric\"": false, \""isAvailable\"": true, \""battery\"": null }"",""{ \""dockNumber\"": 9, \""isElectric\"": false, \""isAvailable\"": true, \""battery\"": null }"",""{ \""dockNumber\"": 10, \""isElectric\"": false, \""isAvailable\"": true, \""battery\"": null }"",""{ \""dockNumber\"": 11, \""isElectric\"": false, \""isAvailable\"": true, \""battery\"": null }"",""{ \""dockNumber\"": 12, \""isElectric\"": false, \""isAvailable\"": true, \""battery\"": null }"",""{ \""dockNumber\"": 13, \""isElectric\"": false, \""isAvailable\"": true, \""battery\"": null }"",""{ \""dockNumber\"": 14, \""isElectric\"": false, \""isAvailable\"": true, \""battery\"": null }"",""{ \""dockNumber\"": 20, \""isElectric\"": false, \""isAvailable\"": true, \""battery\"": null }"",""{ \""dockNumber\"": 22, \""isElectric\"": false, \""isAvailable\"": true, \""battery\"": null }""}",,,,false,false,3010,,,,,0,39.94711,-75.16618,
POINT(-75.19649 39.95967),3011,38th & Powelton,"{-75.19649,39.95967}",22,16,4,1,0,3,4,17,FullService,Active,Active,1,3788 Powelton Avenue,Philadelphia,PA,19104,"{""{ \""dockNumber\"": 1, \""isElectric\"": true, \""isAvailable\"": true, \""battery\"": 0.80000000000000004 }"",""{ \""dockNumber\"": 4, \""isElectric\"": false, \""isAvailable\"": false, \""battery\"": null }"",""{ \""dockNumber\"": 6, \""isElectric\"": true, \""isAvailable\"": true, \""battery\"": 0.80000000000000004 }"",""{ \""dockNumber\"": 12, \""isElectric\"": true, \""isAvailable\"": true, \""battery\"": 0.80000000000000004 }"",""{ \""dockNumber\"": 14, \""isElectric\"": false, \""isAvailable\"": true, \""battery\"": null }"",""{ \""dockNumber\"": 17, \""isElectric\"": false, \""isAvailable\"": false, \""battery\"": null }""}",,,,false,false,3011,,,,,0,39.95967,-75.19649,
POINT(-75.17747 39.94218),3012,21st & Catharine,"{-75.17747,39.94218}",27,18,9,9,0,0,9,18,FullService,Active,Active,1,807 S. 21st St.,Philadelphia,PA,19149,"{""{ \""dockNumber\"": 1, \""isElectric\"": false, \""isAvailable\"": true, \""battery\"": null }"",""{ \""dockNumber\"": 2, \""isElectric\"": false, \""isAvailable\"": true, \""battery\"": null }"",""{ \""dockNumber\"": 3, \""isElectric\"": false, \""isAvailable\"": true, \""battery\"": null }"",""{ \""dockNumber\"": 7, \""isElectric\"": false, \""isAvailable\"": true, \""battery\"": null }"",""{ \""dockNumber\"": 13, \""isElectric\"": false, \""isAvailable\"": true, \""battery\"": null }"",""{ \""dockNumber\"": 18, \""isElectric\"": false, \""isAvailable\"": true, \""battery\"": null }"",""{ \""dockNumber\"": 20, \""isElectric\"": false, \""isAvailable\"": true, \""battery\"": null }"",""{ \""dockNumber\"": 24, \""isElectric\"": false, \""isAvailable\"": true, \""battery\"": null }"",""{ \""dockNumber\"": 27, \""isElectric\"": false, \""isAvailable\"": true, \""battery\"": null }""}",,,,false,false,3012,,,,,0,39.94218,-75.17747,
POINT(-75.14792 39.96317),3013,6th & Fairmount,"{-75.14792,39.96317}",17,8,9,7,0,2,9,8,FullService,Active,Active,1,674 N. 6th St.,Philadelphia,PA,19123,"{""{ \""dockNumber\"": 2, \""isElectric\"": false, \""isAvailable\"": true, \""battery\"": null }"",""{ \""dockNumber\"": 3, \""isElectric\"": false, \""isAvailable\"": true, \""battery\"": null }"",""{ \""dockNumber\"": 4, \""isElectric\"": true, \""isAvailable\"": true, \""battery\"": 0.80000000000000004 }"",""{ \""dockNumber\"": 5, \""isElectric\"": false, \""isAvailable\"": true, \""battery\"": null }"",""{ \""dockNumber\"": 7, \""isElectric\"": false, \""isAvailable\"": true, \""battery\"": null }"",""{ \""dockNumber\"": 9, \""isElectric\"": false, \""isAvailable\"": true, \""battery\"": null }"",""{ \""dockNumber\"": 10, \""isElectric\"": true, \""isAvailable\"": true, \""battery\"": 0.80000000000000004 }"",""{ \""dockNumber\"": 14, \""isElectric\"": false, \""isAvailable\"": true, \""battery\"": null }"",""{ \""dockNumber\"": 16, \""isElectric\"": false, \""isAvailable\"": true, \""battery\"": null }""}",,,,false,false,3013,,,,,0,39.96317,-75.14792,
POINT(-75.17369 39.95886),3014,"21st & Winter, Franklin Institute","{-75.17369,39.95886}",25,19,5,5,0,0,5,19,FullService,Active,Active,1,2090 Winter St.,Philadelphia,PA,19103,"{""{ \""dockNumber\"": 2, \""isElectric\"": false, \""isAvailable\"": true, \""battery\"": null }"",""{ \""dockNumber\"": 3, \""isElectric\"": false, \""isAvailable\"": true, \""battery\"": null }"",""{ \""dockNumber\"": 5, \""isElectric\"": false, \""isAvailable\"": true, \""battery\"": null }"",""{ \""dockNumber\"": 7, \""isElectric\"": false, \""isAvailable\"": false, \""battery\"": null }"",""{ \""dockNumber\"": 9, \""isElectric\"": false, \""isAvailable\"": true, \""battery\"": null }"",""{ \""dockNumber\"": 12, \""isElectric\"": false, \""isAvailable\"": true, \""battery\"": null }""}",,,,false,false,3014,,,,,0,39.95886,-75.17369,
POINT(-75.14886 39.94735),3015,"4th & Walnut, NPS","{-75.14886,39.94735}",11,2,8,7,0,1,8,2,FullService,Active,Active,1,422 Walnut St.,Philadelphia,PA,19106,"{""{ \""dockNumber\"": 2, \""isElectric\"": false, \""isAvailable\"": true, \""battery\"": null }"",""{ \""dockNumber\"": 3, \""isElectric\"": false, \""isAvailable\"": true, \""battery\"": null }"",""{ \""dockNumber\"": 5, \""isElectric\"": false, \""isAvailable\"": true, \""battery\"": null }"",""{ \""dockNumber\"": 6, \""isElectric\"": true, \""isAvailable\"": true, \""battery\"": 0.80000000000000004 }"",""{ \""dockNumber\"": 7, \""isElectric\"": false, \""isAvailable\"": true, \""battery\"": null }"",""{ \""dockNumber\"": 8, \""isElectric\"": false, \""isAvailable\"": true, \""battery\"": null }"",""{ \""dockNumber\"": 9, \""isElectric\"": false, \""isAvailable\"": true, \""battery\"": null }"",""{ \""dockNumber\"": 10, \""isElectric\"": false, \""isAvailable\"": true, \""battery\"": null }"",""{ \""dockNumber\"": 11, \""isElectric\"": false, \""isAvailable\"": true, \""battery\"": null }""}",,,,false,false,3015,,,,,0,39.94735,-75.14886,
POINT(-75.14371 39.98003),3017,6th & Berks,"{-75.14371,39.98003}",15,3,11,10,0,1,11,3,FullService,Active,Active,1,527 W. Berks St.,Philadelphia,PA,19122,"{""{ \""dockNumber\"": 1, \""isElectric\"": false, \""isAvailable\"": true, \""battery\"": null }"",""{ \""dockNumber\"": 2, \""isElectric\"": false, \""isAvailable\"": true, \""battery\"": null }"",""{ \""dockNumber\"": 3, \""isElectric\"": false, \""isAvailable\"": true, \""battery\"": null }"",""{ \""dockNumber\"": 4, \""isElectric\"": false, \""isAvailable\"": true, \""battery\"": null }"",""{ \""dockNumber\"": 6, \""isElectric\"": true, \""isAvailable\"": true, \""battery\"": 0.80000000000000004 }"",""{ \""dockNumber\"": 7, \""isElectric\"": false, \""isAvailable\"": true, \""battery\"": null }"",""{ \""dockNumber\"": 8, \""isElectric\"": false, \""isAvailable\"": false, \""battery\"": null }"",""{ \""dockNumber\"": 10, \""isElectric\"": false, \""isAvailable\"": true, \""battery\"": null }"",""{ \""dockNumber\"": 11, \""isElectric\"": false, \""isAvailable\"": true, \""battery\"": null }"",""{ \""dockNumber\"": 13, \""isElectric\"": false, \""isAvailable\"": true, \""battery\"": null }"",""{ \""dockNumber\"": 14, \""isElectric\"": false, \""isAvailable\"": true, \""battery\"": null }"",""{ \""dockNumber\"": 15, \""isElectric\"": false, \""isAvailable\"": true, \""battery\"": null }""}",,,,false,false,3017,,,,,0,39.98003,-75.14371,
POINT(-75.15979 39.95273),3018,12th & Filbert,"{-75.15979,39.95273}",18,17,1,1,0,0,1,17,FullService,Active,Active,1,1200 Filbert St.,Philadelphia,PA,19107,"{""{ \""dockNumber\"": 8, \""isElectric\"": false, \""isAvailable\"": true, \""battery\"": null }""}",,,,false,false,3018,,,,,0,39.95273,-75.15979,
POINT(-75.14983 39.95403),3019,6th & Race,"{-75.14983,39.95403}",15,10,5,5,0,0,5,10,FullService,Active,Active,1,160 N. 6th St.,Philadelphia,PA,19106,"{""{ \""dockNumber\"": 1, \""isElectric\"": false, \""isAvailable\"": true, \""battery\"": null }"",""{ \""dockNumber\"": 2, \""isElectric\"": false, \""isAvailable\"": true, \""battery\"": null }"",""{ \""dockNumber\"": 3, \""isElectric\"": false, \""isAvailable\"": true, \""battery\"": null }"",""{ \""dockNumber\"": 4, \""isElectric\"": false, \""isAvailable\"": true, \""battery\"": null }"",""{ \""dockNumber\"": 11, \""isElectric\"": false, \""isAvailable\"": true, \""battery\"": null }""}",,,,false,false,3019,,,,,0,39.95403,-75.14983,
POINT(-75.19036 39.94922),3020,University City Station,"{-75.19036,39.94922}",35,35,0,0,0,0,0,35,FullService,Active,Active,1,3051 South St.,Philadelphia,PA,19147,{},,,,false,false,3020,,,,,0,39.94922,-75.19036,
POINT(-75.16902 39.9539),3021,18th & JFK,"{-75.16902,39.9539}",34,22,8,7,0,1,9,22,FullService,Active,Active,1,1750 John F. Kennedy Blvd.,Philadelphia,PA,19103,"{""{ \""dockNumber\"": 2, \""isElectric\"": false, \""isAvailable\"": true, \""battery\"": null }"",""{ \""dockNumber\"": 5, \""isElectric\"": false, \""isAvailable\"": true, \""battery\"": null }"",""{ \""dockNumber\"": 8, \""isElectric\"": false, \""isAvailable\"": true, \""battery\"": null }"",""{ \""dockNumber\"": 10, \""isElectric\"": false, \""isAvailable\"": true, \""battery\"": null }"",""{ \""dockNumber\"": 11, \""isElectric\"": false, \""isAvailable\"": true, \""battery\"": null }"",""{ \""dockNumber\"": 12, \""isElectric\"": false, \""isAvailable\"": false, \""battery\"": null }"",""{ \""dockNumber\"": 14, \""isElectric\"": false, \""isAvailable\"": false, \""battery\"": null }"",""{ \""dockNumber\"": 16, \""isElectric\"": false, \""isAvailable\"": true, \""battery\"": null }"",""{ \""dockNumber\"": 19, \""isElectric\"": false, \""isAvailable\"": false, \""battery\"": null }"",""{ \""dockNumber\"": 25, \""isElectric\"": true, \""isAvailable\"": true, \""battery\"": 0.80000000000000004 }"",""{ \""dockNumber\"": 29, \""isElectric\"": false, \""isAvailable\"": true, \""battery\"": null }"",""{ \""dockNumber\"": 33, \""isElectric\"": false, \""isAvailable\"": true, \""battery\"": null }""}",,,,false,false,3021,,,,,0,39.9539,-75.16902,
POINT(-75.1612 39.93724),3025,11th & Washington,"{-75.1612,39.93724}",15,6,8,8,0,0,8,6,FullService,Active,Active,1,1084 Washington Ave.,Philadelphia,PA,19147,"{""{ \""dockNumber\"": 1, \""isElectric\"": false, \""isAvailable\"": true, \""battery\"": null }"",""{ \""dockNumber\"": 3, \""isElectric\"": false, \""isAvailable\"": false, \""battery\"": null }"",""{ \""dockNumber\"": 4, \""isElectric\"": false, \""isAvailable\"": true, \""battery\"": null }"",""{ \""dockNumber\"": 5, \""isElectric\"": false, \""isAvailable\"": true, \""battery\"": null }"",""{ \""dockNumber\"": 7, \""isElectric\"": false, \""isAvailable\"": true, \""battery\"": null }"",""{ \""dockNumber\"": 9, \""isElectric\"": false, \""isAvailable\"": true, \""battery\"": null }"",""{ \""dockNumber\"": 12, \""isElectric\"": false, \""isAvailable\"": true, \""battery\"": null }"",""{ \""dockNumber\"": 14, \""isElectric\"": false, \""isAvailable\"": true, \""battery\"": null }"",""{ \""dockNumber\"": 15, \""isElectric\"": false, \""isAvailable\"": true, \""battery\"": null }""}",,,,false,false,3025,,,,,0,39.93724,-75.1612,
POINT(-75.14958 39.94061),3028,4th & Bainbridge,"{-75.14958,39.94061}",15,3,11,10,0,1,11,4,FullService,Active,Active,1,404 Bainbridge St.,Philadelphia,PA,19147,"{""{ \""dockNumber\"": 1, \""isElectric\"": true, \""isAvailable\"": true, \""battery\"": 0.80000000000000004 }"",""{ \""dockNumber\"": 2, \""isElectric\"": false, \""isAvailable\"": true, \""battery\"": null }"",""{ \""dockNumber\"": 3, \""isElectric\"": false, \""isAvailable\"": true, \""battery\"": null }"",""{ \""dockNumber\"": 4, \""isElectric\"": false, \""isAvailable\"": true, \""battery\"": null }"",""{ \""dockNumber\"": 5, \""isElectric\"": false, \""isAvailable\"": true, \""battery\"": null }"",""{ \""dockNumber\"": 6, \""isElectric\"": false, \""isAvailable\"": true, \""battery\"": null }"",""{ \""dockNumber\"": 7, \""isElectric\"": false, \""isAvailable\"": false, \""battery\"": null }"",""{ \""dockNumber\"": 9, \""isElectric\"": false, \""isAvailable\"": true, \""battery\"": null }"",""{ \""dockNumber\"": 10, \""isElectric\"": false, \""isAvailable\"": true, \""battery\"": null }"",""{ \""dockNumber\"": 11, \""isElectric\"": false, \""isAvailable\"": true, \""battery\"": null }"",""{ \""dockNumber\"": 12, \""isElectric\"": false, \""isAvailable\"": true, \""battery\"": null }"",""{ \""dockNumber\"": 13, \""isElectric\"": false, \""isAvailable\"": true, \""battery\"": null }""}",,,,false,false,3028,,,,,0,39.94061,-75.14958,
POINT(-75.19479 39.9538),3029,36th & Sansom,"{-75.19479,39.9538}",17,16,1,1,0,0,1,16,FullService,Unavailable,Unresponsive,1,125 S. 36th St.,Philadelphia,PA,19104,"{""{ \""dockNumber\"": 2, \""isElectric\"": false, \""isAvailable\"": true, \""battery\"": null }""}",,,,false,false,3029,,,,,0,39.9538,-75.19479,
POINT(-75.15716 39.93935),3030,Darien & Catharine,"{-75.15716,39.93935}",29,17,11,10,0,1,11,18,FullService,Active,Active,1,840 S. Darien St.,Philadelphia,PA,19147,"{""{ \""dockNumber\"": 1, \""isElectric\"": false, \""isAvailable\"": false, \""battery\"": null }"",""{ \""dockNumber\"": 3, \""isElectric\"": false, \""isAvailable\"": true, \""battery\"": null }"",""{ \""dockNumber\"": 5, \""isElectric\"": false, \""isAvailable\"": true, \""battery\"": null }"",""{ \""dockNumber\"": 6, \""isElectric\"": false, \""isAvailable\"": true, \""battery\"": null }"",""{ \""dockNumber\"": 12, \""isElectric\"": false, \""isAvailable\"": true, \""battery\"": null }"",""{ \""dockNumber\"": 15, \""isElectric\"": false, \""isAvailable\"": true, \""battery\"": null }"",""{ \""dockNumber\"": 22, \""isElectric\"": false, \""isAvailable\"": true, \""battery\"": null }"",""{ \""dockNumber\"": 23, \""isElectric\"": false, \""isAvailable\"": true, \""battery\"": null }"",""{ \""dockNumber\"": 25, \""isElectric\"": true, \""isAvailable\"": true, \""battery\"": 0.80000000000000004 }"",""{ \""dockNumber\"": 27, \""isElectric\"": false, \""isAvailable\"": true, \""battery\"": null }"",""{ \""dockNumber\"": 28, \""isElectric\"": false, \""isAvailable\"": true, \""battery\"": null }"",""{ \""dockNumber\"": 29, \""isElectric\"": false, \""isAvailable\"": true, \""battery\"": null }""}",,,,false,false,3030,,,,,0,39.93935,-75.15716,
POINT(-75.15522 39.98005),3031,13th & Montgomery,"{-75.15522,39.98005}",21,19,2,2,0,0,2,19,FullService,Active,Active,1,1284 W. Montgomery Ave.,Philadelphia,PA,19122,"{""{ \""dockNumber\"": 2, \""isElectric\"": false, \""isAvailable\"": true, \""battery\"": null }"",""{ \""dockNumber\"": 19, \""isElectric\"": false, \""isAvailable\"": true, \""battery\"": null }""}",,,,false,false,3031,,,,,0,39.98005,-75.15522,
POINT(-75.17971 39.94527),3032,23rd & South,"{-75.17971,39.94527}",20,9,9,8,0,1,10,9,FullService,Active,Active,1,671 S. 23rd St.,Philadelphia,PA,19146,"{""{ \""dockNumber\"": 2, \""isElectric\"": false, \""isAvailable\"": true, \""battery\"": null }"",""{ \""dockNumber\"": 3, \""isElectric\"": false, \""isAvailable\"": true, \""battery\"": null }"",""{ \""dockNumber\"": 4, \""isElectric\"": false, \""isAvailable\"": true, \""battery\"": null }"",""{ \""dockNumber\"": 6, \""isElectric\"": false, \""isAvailable\"": false, \""battery\"": null }"",""{ \""dockNumber\"": 8, \""isElectric\"": false, \""isAvailable\"": true, \""battery\"": null }"",""{ \""dockNumber\"": 10, \""isElectric\"": true, \""isAvailable\"": true, \""battery\"": 0.80000000000000004 }"",""{ \""dockNumber\"": 12, \""isElectric\"": false, \""isAvailable\"": true, \""battery\"": null }"",""{ \""dockNumber\"": 13, \""isElectric\"": false, \""isAvailable\"": true, \""battery\"": null }"",""{ \""dockNumber\"": 14, \""isElectric\"": false, \""isAvailable\"": true, \""battery\"": null }"",""{ \""dockNumber\"": 17, \""isElectric\"": false, \""isAvailable\"": true, \""battery\"": null }"",""{ \""dockNumber\"": 20, \""isElectric\"": false, \""isAvailable\"": true, \""battery\"": null }""}",,,,false,false,3032,,,,,0,39.94527,-75.17971,
POINT(-75.16248 39.93315),3034,11th & Reed,"{-75.16248,39.93315}",16,8,8,8,0,0,8,8,FullService,Active,Active,1,1300 S. 11th Street,Philadelphia,PA,19147,"{""{ \""dockNumber\"": 1, \""isElectric\"": false, \""isAvailable\"": true, \""battery\"": null }"",""{ \""dockNumber\"": 2, \""isElectric\"": false, \""isAvailable\"": true, \""battery\"": null }"",""{ \""dockNumber\"": 3, \""isElectric\"": false, \""isAvailable\"": true, \""battery\"": null }"",""{ \""dockNumber\"": 5, \""isElectric\"": false, \""isAvailable\"": true, \""battery\"": null }"",""{ \""dockNumber\"": 8, \""isElectric\"": false, \""isAvailable\"": true, \""battery\"": null }"",""{ \""dockNumber\"": 9, \""isElectric\"": false, \""isAvailable\"": true, \""battery\"": null }"",""{ \""dockNumber\"": 10, \""isElectric\"": false, \""isAvailable\"": true, \""battery\"": null }"",""{ \""dockNumber\"": 13, \""isElectric\"": false, \""isAvailable\"": true, \""battery\"": null }""}",,,,false,false,3034,,,,,0,39.93315,-75.16248,
POINT(-75.19419 39.96271),3035,Dornsife Center,"{-75.19419,39.96271}",20,18,2,0,0,2,2,18,FullService,Active,Active,1,3599 Spring Garden,Philadelphia,PA,19104,"{""{ \""dockNumber\"": 1, \""isElectric\"": true, \""isAvailable\"": true, \""battery\"": 0.80000000000000004 }"",""{ \""dockNumber\"": 2, \""isElectric\"": true, \""isAvailable\"": true, \""battery\"": 0.80000000000000004 }""}",,,,false,false,3035,,,,,0,39.96271,-75.19419,
POINT(-75.16138 39.95424),3037,Pennsylvania Convention Center,"{-75.16138,39.95424}",21,5,15,15,0,0,16,5,FullService,Active,Active,1,1321 Arch St.,Philadelphia,PA,19107,"{""{ \""dockNumber\"": 2, \""isElectric\"": false, \""isAvailable\"": true, \""battery\"": null }"",""{ \""dockNumber\"": 3, \""isElectric\"": false, \""isAvailable\"": false, \""battery\"": null }"",""{ \""dockNumber\"": 4, \""isElectric\"": false, \""isAvailable\"": true, \""battery\"": null }"",""{ \""dockNumber\"": 5, \""isElectric\"": false, \""isAvailable\"": true, \""battery\"": null }"",""{ \""dockNumber\"": 7, \""isElectric\"": false, \""isAvailable\"": true, \""battery\"": null }"",""{ \""dockNumber\"": 9, \""isElectric\"": false, \""isAvailable\"": true, \""battery\"": null }"",""{ \""dockNumber\"": 10, \""isElectric\"": false, \""isAvailable\"": true, \""battery\"": null }"",""{ \""dockNumber\"": 11, \""isElectric\"": false, \""isAvailable\"": true, \""battery\"": null }"",""{ \""dockNumber\"": 12, \""isElectric\"": false, \""isAvailable\"": true, \""battery\"": null }"",""{ \""dockNumber\"": 14, \""isElectric\"": false, \""isAvailable\"": true, \""battery\"": null }"",""{ \""dockNumber\"": 15, \""isElectric\"": false, \""isAvailable\"": true, \""battery\"": null }"",""{ \""dockNumber\"": 17, \""isElectric\"": false, \""isAvailable\"": true, \""battery\"": null }"",""{ \""dockNumber\"": 18, \""isElectric\"": false, \""isAvailable\"": true, \""battery\"": null }"",""{ \""dockNumber\"": 19, \""isElectric\"": false, \""isAvailable\"": true, \""battery\"": null }"",""{ \""dockNumber\"": 20, \""isElectric\"": false, \""isAvailable\"": true, \""battery\"": null }"",""{ \""dockNumber\"": 21, \""isElectric\"": false, \""isAvailable\"": true, \""battery\"": null }""}",,,,false,false,3037,,,,,0,39.95424,-75.16138,
POINT(-75.19409 39.94781),3038,The Children's Hospital of Philadelphia (CHOP),"{-75.19409,39.94781}",19,19,0,0,0,0,0,19,FullService,Active,Active,1,3499 Civic Center Blvd.,Philadelphia,PA,19104,{},,,,false,false,3038,,,,,0,39.94781,-75.19409,
POINT(-75.1597 39.97121),3039,Broad & Girard,"{-75.1597,39.97121}",19,14,4,3,0,1,4,14,FullService,Active,Active,1,922 N. Broad St.,Philadelphia,PA,19130,"{""{ \""dockNumber\"": 1, \""isElectric\"": false, \""isAvailable\"": true, \""battery\"": null }"",""{ \""dockNumber\"": 3, \""isElectric\"": false, \""isAvailable\"": true, \""battery\"": null }"",""{ \""dockNumber\"": 4, \""isElectric\"": true, \""isAvailable\"": true, \""battery\"": 0.80000000000000004 }"",""{ \""dockNumber\"": 14, \""isElectric\"": false, \""isAvailable\"": true, \""battery\"": null }"",""{ \""dockNumber\"": 16, \""isElectric\"": false, \""isAvailable\"": false, \""battery\"": null }""}",,,,false,false,3039,,,,,0,39.97121,-75.1597,
POINT(-75.16606 39.96289),3040,17th & Spring Garden,"{-75.16606,39.96289}",21,16,5,3,0,2,5,16,FullService,Active,Active,1,1684 Spring Garden St.,Philadelphia,PA,19130,"{""{ \""dockNumber\"": 10, \""isElectric\"": true, \""isAvailable\"": true, \""battery\"": 0.80000000000000004 }"",""{ \""dockNumber\"": 16, \""isElectric\"": true, \""isAvailable\"": true, \""battery\"": 0.80000000000000004 }"",""{ \""dockNumber\"": 17, \""isElectric\"": false, \""isAvailable\"": true, \""battery\"": null }"",""{ \""dockNumber\"": 18, \""isElectric\"": false, \""isAvailable\"": true, \""battery\"": null }"",""{ \""dockNumber\"": 21, \""isElectric\"": false, \""isAvailable\"": true, \""battery\"": null }""}",,,,false,false,3040,,,,,0,39.96289,-75.16606,
POINT(-75.13546 39.96849),3041,"Girard Station, MFL","{-75.13546,39.96849}",26,12,13,13,0,0,13,12,FullService,Active,Active,1,1176 Leopard Ave.,Philadelphia,PA,19123,"{""{ \""dockNumber\"": 1, \""isElectric\"": false, \""isAvailable\"": true, \""battery\"": null }"",""{ \""dockNumber\"": 3, \""isElectric\"": false, \""isAvailable\"": true, \""battery\"": null }"",""{ \""dockNumber\"": 4, \""isElectric\"": false, \""isAvailable\"": true, \""battery\"": null }"",""{ \""dockNumber\"": 5, \""isElectric\"": false, \""isAvailable\"": true, \""battery\"": null }"",""{ \""dockNumber\"": 6, \""isElectric\"": false, \""isAvailable\"": true, \""battery\"": null }"",""{ \""dockNumber\"": 7, \""isElectric\"": false, \""isAvailable\"": true, \""battery\"": null }"",""{ \""dockNumber\"": 8, \""isElectric\"": false, \""isAvailable\"": false, \""battery\"": null }"",""{ \""dockNumber\"": 9, \""isElectric\"": false, \""isAvailable\"": true, \""battery\"": null }"",""{ \""dockNumber\"": 11, \""isElectric\"": false, \""isAvailable\"": true, \""battery\"": null }"",""{ \""dockNumber\"": 15, \""isElectric\"": false, \""isAvailable\"": true, \""battery\"": null }"",""{ \""dockNumber\"": 17, \""isElectric\"": false, \""isAvailable\"": true, \""battery\"": null }"",""{ \""dockNumber\"": 20, \""isElectric\"": false, \""isAvailable\"": true, \""battery\"": null }"",""{ \""dockNumber\"": 22, \""isElectric\"": false, \""isAvailable\"": true, \""battery\"": null }"",""{ \""dockNumber\"": 25, \""isElectric\"": false, \""isAvailable\"": true, \""battery\"": null }""}",,,,false,false,3041,,,,,0,39.96849,-75.13546,
POINT(-75.17474 39.93082),3043,"18th & Fernon, Aquinas Center","{-75.17474,39.93082}",18,7,11,11,0,0,11,7,FullService,Active,Active,1,1625 S. 18th St.,Philadelphia,PA,19145,"{""{ \""dockNumber\"": 2, \""isElectric\"": false, \""isAvailable\"": true, \""battery\"": null }"",""{ \""dockNumber\"": 4, \""isElectric\"": false, \""isAvailable\"": true, \""battery\"": null }"",""{ \""dockNumber\"": 5, \""isElectric\"": false, \""isAvailable\"": true, \""battery\"": null }"",""{ \""dockNumber\"": 7, \""isElectric\"": false, \""isAvailable\"": true, \""battery\"": null }"",""{ \""dockNumber\"": 8, \""isElectric\"": false, \""isAvailable\"": true, \""battery\"": null }"",""{ \""dockNumber\"": 9, \""isElectric\"": false, \""isAvailable\"": true, \""battery\"": null }"",""{ \""dockNumber\"": 11, \""isElectric\"": false, \""isAvailable\"": true, \""battery\"": null }"",""{ \""dockNumber\"": 12, \""isElectric\"": false, \""isAvailable\"": true, \""battery\"": null }"",""{ \""dockNumber\"": 14, \""isElectric\"": false, \""isAvailable\"": true, \""battery\"": null }"",""{ \""dockNumber\"": 16, \""isElectric\"": false, \""isAvailable\"": true, \""battery\"": null }"",""{ \""dockNumber\"": 17, \""isElectric\"": false, \""isAvailable\"": true, \""battery\"": null }""}",,,,false,false,3043,,,,,0,39.93082,-75.17474,
POINT(-75.16237 39.94792),3045,13th & Locust,"{-75.16237,39.94792}",15,9,3,3,0,0,3,10,FullService,Active,Active,1,213 S. 13th St.,Philadelphia,PA,19107,"{""{ \""dockNumber\"": 5, \""isElectric\"": false, \""isAvailable\"": true, \""battery\"": null }"",""{ \""dockNumber\"": 7, \""isElectric\"": false, \""isAvailable\"": true, \""battery\"": null }"",""{ \""dockNumber\"": 8, \""isElectric\"": false, \""isAvailable\"": true, \""battery\"": null }"",""{ \""dockNumber\"": 9, \""isElectric\"": false, \""isAvailable\"": false, \""battery\"": null }"",""{ \""dockNumber\"": 13, \""isElectric\"": false, \""isAvailable\"": false, \""battery\"": null }"",""{ \""dockNumber\"": 14, \""isElectric\"": false, \""isAvailable\"": false, \""battery\"": null }""}",,,,false,false,3045,,,,,0,39.94792,-75.16237,
POINT(-75.14472 39.95012),3046,2nd & Market,"{-75.14472,39.95012}",26,11,14,14,0,0,14,12,FullService,Active,Active,1,215 Market St.,Philadelphia,PA,19106,"{""{ \""dockNumber\"": 1, \""isElectric\"": false, \""isAvailable\"": false, \""battery\"": null }"",""{ \""dockNumber\"": 3, \""isElectric\"": false, \""isAvailable\"": true, \""battery\"": null }"",""{ \""dockNumber\"": 5, \""isElectric\"": false, \""isAvailable\"": true, \""battery\"": null }"",""{ \""dockNumber\"": 6, \""isElectric\"": false, \""isAvailable\"": true, \""battery\"": null }"",""{ \""dockNumber\"": 7, \""isElectric\"": false, \""isAvailable\"": true, \""battery\"": null }"",""{ \""dockNumber\"": 8, \""isElectric\"": false, \""isAvailable\"": true, \""battery\"": null }"",""{ \""dockNumber\"": 13, \""isElectric\"": false, \""isAvailable\"": true, \""battery\"": null }"",""{ \""dockNumber\"": 16, \""isElectric\"": false, \""isAvailable\"": true, \""battery\"": null }"",""{ \""dockNumber\"": 20, \""isElectric\"": false, \""isAvailable\"": true, \""battery\"": null }"",""{ \""dockNumber\"": 21, \""isElectric\"": false, \""isAvailable\"": true, \""battery\"": null }"",""{ \""dockNumber\"": 22, \""isElectric\"": false, \""isAvailable\"": true, \""battery\"": null }"",""{ \""dockNumber\"": 23, \""isElectric\"": false, \""isAvailable\"": true, \""battery\"": null }"",""{ \""dockNumber\"": 24, \""isElectric\"": false, \""isAvailable\"": true, \""battery\"": null }"",""{ \""dockNumber\"": 25, \""isElectric\"": false, \""isAvailable\"": true, \""battery\"": null }"",""{ \""dockNumber\"": 26, \""isElectric\"": false, \""isAvailable\"": true, \""battery\"": null }""}",,,,false,false,3046,,,,,0,39.95012,-75.14472,
POINT(-75.14921 39.95071),3047,"Independence Mall, NPS","{-75.14921,39.95071}",20,8,12,10,0,2,12,8,FullService,Active,Active,1,519 Market St.,Philadelphia,PA,19106,"{""{ \""dockNumber\"": 2, \""isElectric\"": false, \""isAvailable\"": true, \""battery\"": null }"",""{ \""dockNumber\"": 4, \""isElectric\"": true, \""isAvailable\"": true, \""battery\"": 0.80000000000000004 }"",""{ \""dockNumber\"": 5, \""isElectric\"": false, \""isAvailable\"": true, \""battery\"": null }"",""{ \""dockNumber\"": 6, \""isElectric\"": false, \""isAvailable\"": true, \""battery\"": null }"",""{ \""dockNumber\"": 10, \""isElectric\"": false, \""isAvailable\"": true, \""battery\"": null }"",""{ \""dockNumber\"": 12, \""isElectric\"": true, \""isAvailable\"": true, \""battery\"": 0.80000000000000004 }"",""{ \""dockNumber\"": 13, \""isElectric\"": false, \""isAvailable\"": true, \""battery\"": null }"",""{ \""dockNumber\"": 14, \""isElectric\"": false, \""isAvailable\"": true, \""battery\"": null }"",""{ \""dockNumber\"": 15, \""isElectric\"": false, \""isAvailable\"": true, \""battery\"": null }"",""{ \""dockNumber\"": 16, \""isElectric\"": false, \""isAvailable\"": true, \""battery\"": null }"",""{ \""dockNumber\"": 19, \""isElectric\"": false, \""isAvailable\"": true, \""battery\"": null }"",""{ \""dockNumber\"": 20, \""isElectric\"": false, \""isAvailable\"": true, \""battery\"": null }""}",,,,false,false,3047,,,,,0,39.95071,-75.14921,
POINT(-75.1425 39.94509),3049,Foglietta Plaza,"{-75.1425,39.94509}",29,15,14,14,0,0,14,15,FullService,Active,Active,1,3 Dock St.,Philadelphia,PA,19106,"{""{ \""dockNumber\"": 1, \""isElectric\"": false, \""isAvailable\"": true, \""battery\"": null }"",""{ \""dockNumber\"": 2, \""isElectric\"": false, \""isAvailable\"": true, \""battery\"": null }"",""{ \""dockNumber\"": 4, \""isElectric\"": false, \""isAvailable\"": true, \""battery\"": null }"",""{ \""dockNumber\"": 5, \""isElectric\"": false, \""isAvailable\"": true, \""battery\"": null }"",""{ \""dockNumber\"": 6, \""isElectric\"": false, \""isAvailable\"": true, \""battery\"": null }"",""{ \""dockNumber\"": 7, \""isElectric\"": false, \""isAvailable\"": true, \""battery\"": null }"",""{ \""dockNumber\"": 8, \""isElectric\"": false, \""isAvailable\"": true, \""battery\"": null }"",""{ \""dockNumber\"": 9, \""isElectric\"": false, \""isAvailable\"": true, \""battery\"": null }"",""{ \""dockNumber\"": 11, \""isElectric\"": false, \""isAvailable\"": true, \""battery\"": null }"",""{ \""dockNumber\"": 14, \""isElectric\"": false, \""isAvailable\"": true, \""battery\"": null }"",""{ \""dockNumber\"": 15, \""isElectric\"": false, \""isAvailable\"": true, \""battery\"": null }"",""{ \""dockNumber\"": 22, \""isElectric\"": false, \""isAvailable\"": true, \""battery\"": null }"",""{ \""dockNumber\"": 26, \""isElectric\"": false, \""isAvailable\"": true, \""battery\"": null }"",""{ \""dockNumber\"": 27, \""isElectric\"": false, \""isAvailable\"": true, \""battery\"": null }""}",,,,false,false,3049,,,,,0,39.94509,-75.1425,
POINT(-75.17507 39.96744),3051,23rd & Fairmount,"{-75.17507,39.96744}",37,33,4,3,0,1,4,33,FullService,Active,Active,1,2237 Fairmount Ave.,Philadelphia,PA,19130,"{""{ \""dockNumber\"": 3, \""isElectric\"": false, \""isAvailable\"": true, \""battery\"": null }"",""{ \""dockNumber\"": 24, \""isElectric\"": false, \""isAvailable\"": true, \""battery\"": null }"",""{ \""dockNumber\"": 36, \""isElectric\"": true, \""isAvailable\"": true, \""battery\"": 0.80000000000000004 }"",""{ \""dockNumber\"": 37, \""isElectric\"": false, \""isAvailable\"": true, \""battery\"": null }""}",,,,false,false,3051,,,,,0,39.96744,-75.17507,
POINT(-75.18154 39.93231),3053,Point Breeze & Tasker,"{-75.18154,39.93231}",19,13,5,4,0,1,5,14,FullService,Active,Active,1,1575 Point Breeze Ave.,Philadelphia,PA,19146,"{""{ \""dockNumber\"": 1, \""isElectric\"": false, \""isAvailable\"": true, \""battery\"": null }"",""{ \""dockNumber\"": 3, \""isElectric\"": false, \""isAvailable\"": true, \""battery\"": null }"",""{ \""dockNumber\"": 7, \""isElectric\"": false, \""isAvailable\"": false, \""battery\"": null }"",""{ \""dockNumber\"": 10, \""isElectric\"": true, \""isAvailable\"": true, \""battery\"": 0.80000000000000004 }"",""{ \""dockNumber\"": 15, \""isElectric\"": false, \""isAvailable\"": true, \""battery\"": null }"",""{ \""dockNumber\"": 16, \""isElectric\"": false, \""isAvailable\"": true, \""battery\"": null }""}",,,,false,false,3053,,,,,0,39.93231,-75.18154,
POINT(-75.1742 39.9625),3054,Rodin Museum,"{-75.1742,39.9625}",35,23,7,4,0,3,8,24,FullService,Active,Active,1,2170 Hamilton St.,Philadelphia,PA,19146,"{""{ \""dockNumber\"": 1, \""isElectric\"": false, \""isAvailable\"": true, \""battery\"": null }"",""{ \""dockNumber\"": 2, \""isElectric\"": true, \""isAvailable\"": true, \""battery\"": 0.80000000000000004 }"",""{ \""dockNumber\"": 4, \""isElectric\"": false, \""isAvailable\"": true, \""battery\"": null }"",""{ \""dockNumber\"": 7, \""isElectric\"": false, \""isAvailable\"": false, \""battery\"": null }"",""{ \""dockNumber\"": 8, \""isElectric\"": true, \""isAvailable\"": true, \""battery\"": 0.80000000000000004 }"",""{ \""dockNumber\"": 9, \""isElectric\"": true, \""isAvailable\"": false, \""battery\"": 0.80000000000000004 }"",""{ \""dockNumber\"": 10, \""isElectric\"": true, \""isAvailable\"": true, \""battery\"": 0.80000000000000004 }"",""{ \""dockNumber\"": 11, \""isElectric\"": false, \""isAvailable\"": true, \""battery\"": null }"",""{ \""dockNumber\"": 12, \""isElectric\"": false, \""isAvailable\"": false, \""battery\"": null }"",""{ \""dockNumber\"": 13, \""isElectric\"": false, \""isAvailable\"": false, \""battery\"": null }"",""{ \""dockNumber\"": 17, \""isElectric\"": false, \""isAvailable\"": true, \""battery\"": null }"",""{ \""dockNumber\"": 21, \""isElectric\"": false, \""isAvailable\"": true, \""battery\"": null }""}",,,,false,false,3054,,,,,0,39.9625,-75.1742,
POINT(-75.15813 39.97669),3056,Broad & Oxford,"{-75.15813,39.97669}",22,11,9,6,0,3,11,11,FullService,Active,Active,1,1501 N. Broad St.,Philadelphia,PA,19122,"{""{ \""dockNumber\"": 6, \""isElectric\"": false, \""isAvailable\"": false, \""battery\"": null }"",""{ \""dockNumber\"": 8, \""isElectric\"": false, \""isAvailable\"": true, \""battery\"": null }"",""{ \""dockNumber\"": 9, \""isElectric\"": false, \""isAvailable\"": true, \""battery\"": null }"",""{ \""dockNumber\"": 10, \""isElectric\"": false, \""isAvailable\"": true, \""battery\"": null }"",""{ \""dockNumber\"": 12, \""isElectric\"": true, \""isAvailable\"": true, \""battery\"": 0.80000000000000004 }"",""{ \""dockNumber\"": 14, \""isElectric\"": true, \""isAvailable\"": true, \""battery\"": 0.80000000000000004 }"",""{ \""dockNumber\"": 15, \""isElectric\"": false, \""isAvailable\"": true, \""battery\"": null }"",""{ \""dockNumber\"": 18, \""isElectric\"": false, \""isAvailable\"": true, \""battery\"": null }"",""{ \""dockNumber\"": 20, \""isElectric\"": true, \""isAvailable\"": true, \""battery\"": 0.80000000000000004 }"",""{ \""dockNumber\"": 21, \""isElectric\"": false, \""isAvailable\"": true, \""battery\"": null }"",""{ \""dockNumber\"": 22, \""isElectric\"": false, \""isAvailable\"": false, \""battery\"": null }""}",,,,false,false,3056,,,,,0,39.97669,-75.15813,
POINT(-75.17987 39.96439),3057,Philadelphia Museum of Art,"{-75.17987,39.96439}",26,15,11,11,0,0,11,15,FullService,Active,Active,1,Schuylkill River Trail,Philadelphia,PA,19130,"{""{ \""dockNumber\"": 2, \""isElectric\"": false, \""isAvailable\"": true, \""battery\"": null }"",""{ \""dockNumber\"": 4, \""isElectric\"": false, \""isAvailable\"": true, \""battery\"": null }"",""{ \""dockNumber\"": 6, \""isElectric\"": false, \""isAvailable\"": true, \""battery\"": null }"",""{ \""dockNumber\"": 8, \""isElectric\"": false, \""isAvailable\"": true, \""battery\"": null }"",""{ \""dockNumber\"": 9, \""isElectric\"": false, \""isAvailable\"": true, \""battery\"": null }"",""{ \""dockNumber\"": 10, \""isElectric\"": false, \""isAvailable\"": true, \""battery\"": null }"",""{ \""dockNumber\"": 12, \""isElectric\"": false, \""isAvailable\"": true, \""battery\"": null }"",""{ \""dockNumber\"": 17, \""isElectric\"": false, \""isAvailable\"": true, \""battery\"": null }"",""{ \""dockNumber\"": 19, \""isElectric\"": false, \""isAvailable\"": true, \""battery\"": null }"",""{ \""dockNumber\"": 21, \""isElectric\"": false, \""isAvailable\"": true, \""battery\"": null }"",""{ \""dockNumber\"": 23, \""isElectric\"": false, \""isAvailable\"": true, \""battery\"": null }""}",,,,false,false,3057,,,,,0,39.96439,-75.17987,
POINT(-75.17001 39.96716),3058,20th & Fairmount,"{-75.17001,39.96716}",19,8,11,8,0,3,11,8,FullService,Active,Active,1,1940 Fairmount Ave.,Philadelphia,PA,19130,"{""{ \""dockNumber\"": 1, \""isElectric\"": false, \""isAvailable\"": true, \""battery\"": null }"",""{ \""dockNumber\"": 3, \""isElectric\"": false, \""isAvailable\"": true, \""battery\"": null }"",""{ \""dockNumber\"": 4, \""isElectric\"": true, \""isAvailable\"": true, \""battery\"": 0.80000000000000004 }"",""{ \""dockNumber\"": 7, \""isElectric\"": true, \""isAvailable\"": true, \""battery\"": 0.80000000000000004 }"",""{ \""dockNumber\"": 9, \""isElectric\"": false, \""isAvailable\"": true, \""battery\"": null }"",""{ \""dockNumber\"": 10, \""isElectric\"": false, \""isAvailable\"": true, \""battery\"": null }"",""{ \""dockNumber\"": 12, \""isElectric\"": false, \""isAvailable\"": true, \""battery\"": null }"",""{ \""dockNumber\"": 15, \""isElectric\"": false, \""isAvailable\"": true, \""battery\"": null }"",""{ \""dockNumber\"": 17, \""isElectric\"": true, \""isAvailable\"": true, \""battery\"": 0.80000000000000004 }"",""{ \""dockNumber\"": 18, \""isElectric\"": false, \""isAvailable\"": true, \""battery\"": null }"",""{ \""dockNumber\"": 19, \""isElectric\"": false, \""isAvailable\"": true, \""battery\"": null }""}",,,,false,false,3058,,,,,0,39.96716,-75.17001,
POINT(-75.16121 39.96244),3059,"Spring Garden Station, BSL","{-75.16121,39.96244}",21,16,5,2,0,3,5,16,FullService,Active,Active,1,1415 Spring Garden St.,Philadelphia,PA,19123,"{""{ \""dockNumber\"": 10, \""isElectric\"": true, \""isAvailable\"": true, \""battery\"": 0.80000000000000004 }"",""{ \""dockNumber\"": 12, \""isElectric\"": true, \""isAvailable\"": true, \""battery\"": 0.80000000000000004 }"",""{ \""dockNumber\"": 14, \""isElectric\"": false, \""isAvailable\"": true, \""battery\"": null }"",""{ \""dockNumber\"": 16, \""isElectric\"": true, \""isAvailable\"": true, \""battery\"": 0.80000000000000004 }"",""{ \""dockNumber\"": 20, \""isElectric\"": false, \""isAvailable\"": true, \""battery\"": null }""}",,,,false,false,3059,,,,,0,39.96244,-75.16121,
POINT(-75.16711 39.93549),3068,Broad & Federal,"{-75.16711,39.93549}",18,13,5,4,0,1,5,13,FullService,Active,Active,1,1201 S. Broad St.,Philadelphia,PA,19146,"{""{ \""dockNumber\"": 2, \""isElectric\"": false, \""isAvailable\"": true, \""battery\"": null }"",""{ \""dockNumber\"": 3, \""isElectric\"": false, \""isAvailable\"": true, \""battery\"": null }"",""{ \""dockNumber\"": 4, \""isElectric\"": true, \""isAvailable\"": true, \""battery\"": 0.80000000000000004 }"",""{ \""dockNumber\"": 8, \""isElectric\"": false, \""isAvailable\"": true, \""battery\"": null }"",""{ \""dockNumber\"": 18, \""isElectric\"": false, \""isAvailable\"": true, \""battery\"": null }""}",,,,false,false,3068,,,,,0,39.93549,-75.16711,
POINT(-75.17036 39.95923),3060,Free Library of Philadelphia - Central Library,"{-75.17036,39.95923}",19,11,6,6,0,0,8,11,FullService,Active,Active,1,302 N. 19th St.,Philadelphia,PA,19103,"{""{ \""dockNumber\"": 2, \""isElectric\"": false, \""isAvailable\"": false, \""battery\"": null }"",""{ \""dockNumber\"": 6, \""isElectric\"": false, \""isAvailable\"": true, \""battery\"": null }"",""{ \""dockNumber\"": 7, \""isElectric\"": false, \""isAvailable\"": false, \""battery\"": null }"",""{ \""dockNumber\"": 8, \""isElectric\"": false, \""isAvailable\"": true, \""battery\"": null }"",""{ \""dockNumber\"": 10, \""isElectric\"": false, \""isAvailable\"": true, \""battery\"": null }"",""{ \""dockNumber\"": 12, \""isElectric\"": false, \""isAvailable\"": true, \""battery\"": null }"",""{ \""dockNumber\"": 15, \""isElectric\"": false, \""isAvailable\"": true, \""battery\"": null }"",""{ \""dockNumber\"": 17, \""isElectric\"": false, \""isAvailable\"": true, \""battery\"": null }""}",,,,false,false,3060,,,,,0,39.95923,-75.17036,
POINT(-75.1418 39.96984),3088,3rd & Girard,"{-75.1418,39.96984}",35,10,22,18,0,4,22,12,FullService,Active,Active,1,317 W. Girard Ave. ,Philadelphia,PA,19125,"{""{ \""dockNumber\"": 2, \""isElectric\"": false, \""isAvailable\"": true, \""battery\"": null }"",""{ \""dockNumber\"": 3, \""isElectric\"": false, \""isAvailable\"": true, \""battery\"": null }"",""{ \""dockNumber\"": 4, \""isElectric\"": false, \""isAvailable\"": true, \""battery\"": null }"",""{ \""dockNumber\"": 6, \""isElectric\"": false, \""isAvailable\"": true, \""battery\"": null }"",""{ \""dockNumber\"": 7, \""isElectric\"": false, \""isAvailable\"": false, \""battery\"": null }"",""{ \""dockNumber\"": 8, \""isElectric\"": false, \""isAvailable\"": true, \""battery\"": null }"",""{ \""dockNumber\"": 9, \""isElectric\"": false, \""isAvailable\"": true, \""battery\"": null }"",""{ \""dockNumber\"": 10, \""isElectric\"": false, \""isAvailable\"": true, \""battery\"": null }"",""{ \""dockNumber\"": 11, \""isElectric\"": false, \""isAvailable\"": false, \""battery\"": null }"",""{ \""dockNumber\"": 12, \""isElectric\"": false, \""isAvailable\"": true, \""battery\"": null }"",""{ \""dockNumber\"": 14, \""isElectric\"": true, \""isAvailable\"": true, \""battery\"": 0.80000000000000004 }"",""{ \""dockNumber\"": 16, \""isElectric\"": false, \""isAvailable\"": true, \""battery\"": null }"",""{ \""dockNumber\"": 18, \""isElectric\"": true, \""isAvailable\"": true, \""battery\"": 0.80000000000000004 }"",""{ \""dockNumber\"": 20, \""isElectric\"": false, \""isAvailable\"": true, \""battery\"": null }"",""{ \""dockNumber\"": 22, \""isElectric\"": false, \""isAvailable\"": true, \""battery\"": null }"",""{ \""dockNumber\"": 24, \""isElectric\"": false, \""isAvailable\"": false, \""battery\"": null }"",""{ \""dockNumber\"": 25, \""isElectric\"": false, \""isAvailable\"": true, \""battery\"": null }"",""{ \""dockNumber\"": 27, \""isElectric\"": false, \""isAvailable\"": true, \""battery\"": null }"",""{ \""dockNumber\"": 29, \""isElectric\"": true, \""isAvailable\"": true, \""battery\"": 0.80000000000000004 }"",""{ \""dockNumber\"": 30, \""isElectric\"": false, \""isAvailable\"": true, \""battery\"": null }"",""{ \""dockNumber\"": 31, \""isElectric\"": false, \""isAvailable\"": true, \""battery\"": null }"",""{ \""dockNumber\"": 32, \""isElectric\"": true, \""isAvailable\"": true, \""battery\"": 0.80000000000000004 }"",""{ \""dockNumber\"": 33, \""isElectric\"": false, \""isAvailable\"": true, \""battery\"": null }"",""{ \""dockNumber\"": 34, \""isElectric\"": false, \""isAvailable\"": true, \""battery\"": null }"",""{ \""dockNumber\"": 35, \""isElectric\"": false, \""isAvailable\"": true, \""battery\"": null }""}",,,,false,false,3088,,,,,0,39.96984,-75.1418,
POINT(-75.17761 39.95425),3061,23rd & Market,"{-75.17761,39.95425}",25,11,14,13,0,1,14,11,FullService,Active,Active,1,2241 Market St.,Philadelphia,PA,19103,"{""{ \""dockNumber\"": 1, \""isElectric\"": false, \""isAvailable\"": true, \""battery\"": null }"",""{ \""dockNumber\"": 2, \""isElectric\"": true, \""isAvailable\"": true, \""battery\"": 0.80000000000000004 }"",""{ \""dockNumber\"": 6, \""isElectric\"": false, \""isAvailable\"": true, \""battery\"": null }"",""{ \""dockNumber\"": 7, \""isElectric\"": false, \""isAvailable\"": true, \""battery\"": null }"",""{ \""dockNumber\"": 9, \""isElectric\"": false, \""isAvailable\"": true, \""battery\"": null }"",""{ \""dockNumber\"": 12, \""isElectric\"": false, \""isAvailable\"": true, \""battery\"": null }"",""{ \""dockNumber\"": 15, \""isElectric\"": false, \""isAvailable\"": true, \""battery\"": null }"",""{ \""dockNumber\"": 17, \""isElectric\"": false, \""isAvailable\"": true, \""battery\"": null }"",""{ \""dockNumber\"": 18, \""isElectric\"": false, \""isAvailable\"": true, \""battery\"": null }"",""{ \""dockNumber\"": 20, \""isElectric\"": false, \""isAvailable\"": true, \""battery\"": null }"",""{ \""dockNumber\"": 21, \""isElectric\"": false, \""isAvailable\"": true, \""battery\"": null }"",""{ \""dockNumber\"": 22, \""isElectric\"": false, \""isAvailable\"": true, \""battery\"": null }"",""{ \""dockNumber\"": 24, \""isElectric\"": false, \""isAvailable\"": true, \""battery\"": null }"",""{ \""dockNumber\"": 25, \""isElectric\"": false, \""isAvailable\"": true, \""battery\"": null }""}",,,,false,false,3061,,,,,0,39.95425,-75.17761,
POINT(-75.17943 39.95197),3062,24th & Sansom,"{-75.17943,39.95197}",15,10,5,4,0,1,5,10,FullService,Active,Active,1,120 S. 24th St.,Philadelphia,PA,19103,"{""{ \""dockNumber\"": 8, \""isElectric\"": false, \""isAvailable\"": true, \""battery\"": null }"",""{ \""dockNumber\"": 11, \""isElectric\"": false, \""isAvailable\"": true, \""battery\"": null }"",""{ \""dockNumber\"": 12, \""isElectric\"": true, \""isAvailable\"": true, \""battery\"": 0.80000000000000004 }"",""{ \""dockNumber\"": 13, \""isElectric\"": false, \""isAvailable\"": true, \""battery\"": null }"",""{ \""dockNumber\"": 15, \""isElectric\"": false, \""isAvailable\"": true, \""battery\"": null }""}",,,,false,false,3062,,,,,0,39.95197,-75.17943,
POINT(-75.1698 39.94633),3063,17th & Pine,"{-75.1698,39.94633}",25,21,3,3,0,0,3,21,FullService,Active,Active,1,391  S. 17th St.,Philadelphia,PA,19103,"{""{ \""dockNumber\"": 9, \""isElectric\"": false, \""isAvailable\"": true, \""battery\"": null }"",""{ \""dockNumber\"": 14, \""isElectric\"": false, \""isAvailable\"": false, \""battery\"": null }"",""{ \""dockNumber\"": 21, \""isElectric\"": false, \""isAvailable\"": true, \""battery\"": null }"",""{ \""dockNumber\"": 25, \""isElectric\"": false, \""isAvailable\"": true, \""battery\"": null }""}",,,,false,false,3063,,,,,0,39.94633,-75.1698,
POINT(-75.17327 39.9384),3064,"18th & Washington, Chew Playground","{-75.17327,39.9384}",22,13,9,9,0,0,9,13,FullService,Active,Active,1,1800 Washington Ave.,Philadelphia,PA,19146,"{""{ \""dockNumber\"": 3, \""isElectric\"": false, \""isAvailable\"": true, \""battery\"": null }"",""{ \""dockNumber\"": 5, \""isElectric\"": false, \""isAvailable\"": true, \""battery\"": null }"",""{ \""dockNumber\"": 6, \""isElectric\"": false, \""isAvailable\"": true, \""battery\"": null }"",""{ \""dockNumber\"": 7, \""isElectric\"": false, \""isAvailable\"": true, \""battery\"": null }"",""{ \""dockNumber\"": 9, \""isElectric\"": false, \""isAvailable\"": true, \""battery\"": null }"",""{ \""dockNumber\"": 11, \""isElectric\"": false, \""isAvailable\"": true, \""battery\"": null }"",""{ \""dockNumber\"": 13, \""isElectric\"": false, \""isAvailable\"": true, \""battery\"": null }"",""{ \""dockNumber\"": 15, \""isElectric\"": false, \""isAvailable\"": true, \""battery\"": null }"",""{ \""dockNumber\"": 20, \""isElectric\"": false, \""isAvailable\"": true, \""battery\"": null }""}",,,,false,false,3064,,,,,0,39.9384,-75.17327,
POINT(-75.15171 39.9707),3065,Girard & Hutchinson,"{-75.15171,39.9707}",15,10,5,3,0,2,5,10,FullService,Active,Active,1,915 W. Girard Ave.,Philadelphia,PA,19123,"{""{ \""dockNumber\"": 3, \""isElectric\"": false, \""isAvailable\"": true, \""battery\"": null }"",""{ \""dockNumber\"": 4, \""isElectric\"": true, \""isAvailable\"": true, \""battery\"": 0.80000000000000004 }"",""{ \""dockNumber\"": 5, \""isElectric\"": true, \""isAvailable\"": true, \""battery\"": 0.80000000000000004 }"",""{ \""dockNumber\"": 6, \""isElectric\"": false, \""isAvailable\"": true, \""battery\"": null }"",""{ \""dockNumber\"": 14, \""isElectric\"": false, \""isAvailable\"": true, \""battery\"": null }""}",,,,false,false,3065,,,,,0,39.9707,-75.15171,
POINT(-75.17348 39.94561),3066,19th & Lombard,"{-75.17348,39.94561}",29,26,2,2,0,0,2,26,FullService,Active,Active,1,1910 Lombard St.,Philadelphia,PA,19146,"{""{ \""dockNumber\"": 4, \""isElectric\"": false, \""isAvailable\"": true, \""battery\"": null }"",""{ \""dockNumber\"": 25, \""isElectric\"": false, \""isAvailable\"": true, \""battery\"": null }"",""{ \""dockNumber\"": 29, \""isElectric\"": true, \""isAvailable\"": false, \""battery\"": 0.80000000000000004 }""}",,,,false,false,3066,,,,,0,39.94561,-75.17348,
POINT(-75.19973 39.96411),3067,"39th & Mt. Vernon, Mantua Haverford Community Center","{-75.19973,39.96411}",17,12,5,5,0,0,5,12,FullService,Active,Active,1,631 N. 39th St.,Philadelphia,PA,19104,"{""{ \""dockNumber\"": 1, \""isElectric\"": false, \""isAvailable\"": true, \""battery\"": null }"",""{ \""dockNumber\"": 2, \""isElectric\"": false, \""isAvailable\"": true, \""battery\"": null }"",""{ \""dockNumber\"": 3, \""isElectric\"": false, \""isAvailable\"": true, \""battery\"": null }"",""{ \""dockNumber\"": 7, \""isElectric\"": false, \""isAvailable\"": true, \""battery\"": null }"",""{ \""dockNumber\"": 15, \""isElectric\"": false, \""isAvailable\"": true, \""battery\"": null }""}",,,,false,false,3067,,,,,0,39.96411,-75.19973,
POINT(-75.15038 39.93704),3069,4th & Christian,"{-75.15038,39.93704}",23,19,3,3,0,0,3,19,FullService,Active,Active,1,403 Christian St.,Philadelphia,PA,19147,"{""{ \""dockNumber\"": 3, \""isElectric\"": false, \""isAvailable\"": true, \""battery\"": null }"",""{ \""dockNumber\"": 4, \""isElectric\"": false, \""isAvailable\"": true, \""battery\"": null }"",""{ \""dockNumber\"": 12, \""isElectric\"": false, \""isAvailable\"": true, \""battery\"": null }"",""{ \""dockNumber\"": 23, \""isElectric\"": false, \""isAvailable\"": true, \""battery\"": null }""}",,,,false,false,3069,,,,,0,39.93704,-75.15038,
POINT(-75.13983 39.96062),3070,"Spring Garden Station, MFL","{-75.13983,39.96062}",19,15,3,2,0,1,3,15,FullService,Active,Active,1,117 Spring Garden St.,Philadelphia,PA,19123,"{""{ \""dockNumber\"": 2, \""isElectric\"": true, \""isAvailable\"": true, \""battery\"": 0.80000000000000004 }"",""{ \""dockNumber\"": 11, \""isElectric\"": false, \""isAvailable\"": true, \""battery\"": null }"",""{ \""dockNumber\"": 16, \""isElectric\"": true, \""isAvailable\"": true, \""battery\"": 0.80000000000000004 }"",""{ \""dockNumber\"": 18, \""isElectric\"": false, \""isAvailable\"": true, \""battery\"": null }""}",,,,false,false,3070,,,,,0,39.96062,-75.13983,
POINT(-75.18788 39.96173),3071,"32nd & Baring, Drexel Park","{-75.18788,39.96173}",13,3,9,7,0,2,9,4,FullService,Active,Active,1,3170 Baring St.,Philadelphia,PA,19104,"{""{ \""dockNumber\"": 1, \""isElectric\"": false, \""isAvailable\"": true, \""battery\"": null }"",""{ \""dockNumber\"": 2, \""isElectric\"": false, \""isAvailable\"": true, \""battery\"": null }"",""{ \""dockNumber\"": 3, \""isElectric\"": true, \""isAvailable\"": true, \""battery\"": 0.80000000000000004 }"",""{ \""dockNumber\"": 4, \""isElectric\"": false, \""isAvailable\"": true, \""battery\"": null }"",""{ \""dockNumber\"": 5, \""isElectric\"": false, \""isAvailable\"": true, \""battery\"": null }"",""{ \""dockNumber\"": 6, \""isElectric\"": false, \""isAvailable\"": false, \""battery\"": null }"",""{ \""dockNumber\"": 7, \""isElectric\"": false, \""isAvailable\"": true, \""battery\"": null }"",""{ \""dockNumber\"": 8, \""isElectric\"": true, \""isAvailable\"": true, \""battery\"": 0.80000000000000004 }"",""{ \""dockNumber\"": 9, \""isElectric\"": false, \""isAvailable\"": true, \""battery\"": null }"",""{ \""dockNumber\"": 13, \""isElectric\"": false, \""isAvailable\"": true, \""battery\"": null }""}",,,,false,false,3071,,,,,0,39.96173,-75.18788,
POINT(-75.15242 39.96143),3073,9th & Spring Garden,"{-75.15242,39.96143}",15,3,12,11,0,1,12,3,FullService,Active,Active,1,802 Spring Garden St.,Philadelphia,PA,19123,"{""{ \""dockNumber\"": 1, \""isElectric\"": false, \""isAvailable\"": true, \""battery\"": null }"",""{ \""dockNumber\"": 3, \""isElectric\"": false, \""isAvailable\"": true, \""battery\"": null }"",""{ \""dockNumber\"": 4, \""isElectric\"": false, \""isAvailable\"": true, \""battery\"": null }"",""{ \""dockNumber\"": 5, \""isElectric\"": false, \""isAvailable\"": true, \""battery\"": null }"",""{ \""dockNumber\"": 8, \""isElectric\"": false, \""isAvailable\"": true, \""battery\"": null }"",""{ \""dockNumber\"": 9, \""isElectric\"": false, \""isAvailable\"": true, \""battery\"": null }"",""{ \""dockNumber\"": 10, \""isElectric\"": false, \""isAvailable\"": true, \""battery\"": null }"",""{ \""dockNumber\"": 11, \""isElectric\"": false, \""isAvailable\"": true, \""battery\"": null }"",""{ \""dockNumber\"": 12, \""isElectric\"": false, \""isAvailable\"": true, \""battery\"": null }"",""{ \""dockNumber\"": 13, \""isElectric\"": true, \""isAvailable\"": true, \""battery\"": 0.80000000000000004 }"",""{ \""dockNumber\"": 14, \""isElectric\"": false, \""isAvailable\"": true, \""battery\"": null }"",""{ \""dockNumber\"": 15, \""isElectric\"": false, \""isAvailable\"": true, \""battery\"": null }""}",,,,false,false,3073,,,,,0,39.96143,-75.15242,
POINT(-75.20987 39.95511),3074,44th & Walnut,"{-75.20987,39.95511}",15,3,6,6,0,0,7,7,FullService,Active,Active,1,160 S. 44th St.,Philadelphia,PA,19104,"{""{ \""dockNumber\"": 1, \""isElectric\"": false, \""isAvailable\"": false, \""battery\"": null }"",""{ \""dockNumber\"": 2, \""isElectric\"": false, \""isAvailable\"": true, \""battery\"": null }"",""{ \""dockNumber\"": 3, \""isElectric\"": false, \""isAvailable\"": false, \""battery\"": null }"",""{ \""dockNumber\"": 6, \""isElectric\"": false, \""isAvailable\"": true, \""battery\"": null }"",""{ \""dockNumber\"": 7, \""isElectric\"": false, \""isAvailable\"": false, \""battery\"": null }"",""{ \""dockNumber\"": 8, \""isElectric\"": false, \""isAvailable\"": true, \""battery\"": null }"",""{ \""dockNumber\"": 9, \""isElectric\"": false, \""isAvailable\"": true, \""battery\"": null }"",""{ \""dockNumber\"": 10, \""isElectric\"": false, \""isAvailable\"": false, \""battery\"": null }"",""{ \""dockNumber\"": 11, \""isElectric\"": false, \""isAvailable\"": true, \""battery\"": null }"",""{ \""dockNumber\"": 12, \""isElectric\"": false, \""isAvailable\"": false, \""battery\"": null }"",""{ \""dockNumber\"": 13, \""isElectric\"": false, \""isAvailable\"": false, \""battery\"": null }"",""{ \""dockNumber\"": 14, \""isElectric\"": false, \""isAvailable\"": true, \""battery\"": null }""}",,,,false,false,3074,,,,,0,39.95511,-75.20987,
POINT(-75.16125 39.96718),3075,Fairmount & Ridge,"{-75.16125,39.96718}",12,3,9,7,0,2,9,3,FullService,Active,Active,1,1413 Fairmount Ave.,Philadelphia,PA,19130,"{""{ \""dockNumber\"": 3, \""isElectric\"": false, \""isAvailable\"": true, \""battery\"": null }"",""{ \""dockNumber\"": 4, \""isElectric\"": true, \""isAvailable\"": true, \""battery\"": 0.80000000000000004 }"",""{ \""dockNumber\"": 5, \""isElectric\"": true, \""isAvailable\"": true, \""battery\"": 0.80000000000000004 }"",""{ \""dockNumber\"": 6, \""isElectric\"": false, \""isAvailable\"": true, \""battery\"": null }"",""{ \""dockNumber\"": 7, \""isElectric\"": false, \""isAvailable\"": true, \""battery\"": null }"",""{ \""dockNumber\"": 8, \""isElectric\"": false, \""isAvailable\"": true, \""battery\"": null }"",""{ \""dockNumber\"": 9, \""isElectric\"": false, \""isAvailable\"": true, \""battery\"": null }"",""{ \""dockNumber\"": 10, \""isElectric\"": false, \""isAvailable\"": true, \""battery\"": null }"",""{ \""dockNumber\"": 12, \""isElectric\"": false, \""isAvailable\"": true, \""battery\"": null }""}",,,,false,false,3075,,,,,0,39.96718,-75.16125,
POINT(-75.16351 39.97207),3077,17th & Girard,"{-75.16351,39.97207}",19,13,6,5,0,1,6,13,FullService,Active,Active,1,1617 Girard Ave.,Philadelphia,PA,19130,"{""{ \""dockNumber\"": 3, \""isElectric\"": false, \""isAvailable\"": true, \""battery\"": null }"",""{ \""dockNumber\"": 6, \""isElectric\"": false, \""isAvailable\"": true, \""battery\"": null }"",""{ \""dockNumber\"": 14, \""isElectric\"": false, \""isAvailable\"": true, \""battery\"": null }"",""{ \""dockNumber\"": 16, \""isElectric\"": false, \""isAvailable\"": true, \""battery\"": null }"",""{ \""dockNumber\"": 17, \""isElectric\"": false, \""isAvailable\"": true, \""battery\"": null }"",""{ \""dockNumber\"": 18, \""isElectric\"": true, \""isAvailable\"": true, \""battery\"": 0.80000000000000004 }""}",,,,false,false,3077,,,,,0,39.97207,-75.16351,
POINT(-75.17192 39.95355),3078,19th & Market,"{-75.17192,39.95355}",18,7,8,8,0,0,8,7,FullService,Active,Active,1,1901 Market St.,Philadelphia,PA,19103,"{""{ \""dockNumber\"": 1, \""isElectric\"": false, \""isAvailable\"": true, \""battery\"": null }"",""{ \""dockNumber\"": 2, \""isElectric\"": true, \""isAvailable\"": false, \""battery\"": 0.80000000000000004 }"",""{ \""dockNumber\"": 3, \""isElectric\"": false, \""isAvailable\"": false, \""battery\"": null }"",""{ \""dockNumber\"": 4, \""isElectric\"": false, \""isAvailable\"": true, \""battery\"": null }"",""{ \""dockNumber\"": 6, \""isElectric\"": false, \""isAvailable\"": true, \""battery\"": null }"",""{ \""dockNumber\"": 7, \""isElectric\"": false, \""isAvailable\"": false, \""battery\"": null }"",""{ \""dockNumber\"": 8, \""isElectric\"": false, \""isAvailable\"": true, \""battery\"": null }"",""{ \""dockNumber\"": 10, \""isElectric\"": false, \""isAvailable\"": true, \""battery\"": null }"",""{ \""dockNumber\"": 11, \""isElectric\"": false, \""isAvailable\"": true, \""battery\"": null }"",""{ \""dockNumber\"": 16, \""isElectric\"": false, \""isAvailable\"": true, \""battery\"": null }"",""{ \""dockNumber\"": 18, \""isElectric\"": false, \""isAvailable\"": true, \""battery\"": null }""}",,,,false,false,3078,,,,,0,39.95355,-75.17192,
POINT(-75.16691 39.94019),3086,Broad & Christian,"{-75.16691,39.94019}",21,13,7,7,0,0,7,13,FullService,Active,Active,1,1406 Christian Street,Philadelphia,PA,19146,"{""{ \""dockNumber\"": 1, \""isElectric\"": false, \""isAvailable\"": true, \""battery\"": null }"",""{ \""dockNumber\"": 8, \""isElectric\"": false, \""isAvailable\"": true, \""battery\"": null }"",""{ \""dockNumber\"": 9, \""isElectric\"": false, \""isAvailable\"": true, \""battery\"": null }"",""{ \""dockNumber\"": 12, \""isElectric\"": false, \""isAvailable\"": true, \""battery\"": null }"",""{ \""dockNumber\"": 14, \""isElectric\"": false, \""isAvailable\"": true, \""battery\"": null }"",""{ \""dockNumber\"": 16, \""isElectric\"": false, \""isAvailable\"": false, \""battery\"": null }"",""{ \""dockNumber\"": 18, \""isElectric\"": false, \""isAvailable\"": true, \""battery\"": null }"",""{ \""dockNumber\"": 20, \""isElectric\"": false, \""isAvailable\"": true, \""battery\"": null }""}",,,,false,false,3086,,,,,0,39.94019,-75.16691,
POINT(-75.18701 39.98837),3093,33rd & Diamond,"{-75.18701,39.98837}",16,10,6,3,0,1,6,10,FullService,Active,Active,1,2039 N. 33rd Street,Philadelphia,PA,19121,"{""{ \""dockNumber\"": 1, \""isElectric\"": false, \""isAvailable\"": true, \""battery\"": null }"",""{ \""dockNumber\"": 2, \""isElectric\"": true, \""isAvailable\"": true, \""battery\"": 0.25 }"",""{ \""dockNumber\"": 4, \""isElectric\"": true, \""isAvailable\"": true, \""battery\"": 0.25 }"",""{ \""dockNumber\"": 7, \""isElectric\"": true, \""isAvailable\"": true, \""battery\"": 0.80000000000000004 }"",""{ \""dockNumber\"": 8, \""isElectric\"": false, \""isAvailable\"": true, \""battery\"": null }"",""{ \""dockNumber\"": 9, \""isElectric\"": false, \""isAvailable\"": true, \""battery\"": null }""}",,,,false,false,3093,,,,,0,39.98837,-75.18701,
POINT(-75.17975 39.99119),3096,29th & Dauphin,"{-75.17975,39.99119}",14,8,4,3,0,1,4,8,FullService,Active,Active,1,2301 N. 29th Street,Philadelphia,PA,19132,"{""{ \""dockNumber\"": 2, \""isElectric\"": false, \""isAvailable\"": true, \""battery\"": null }"",""{ \""dockNumber\"": 4, \""isElectric\"": true, \""isAvailable\"": false, \""battery\"": 0.80000000000000004 }"",""{ \""dockNumber\"": 5, \""isElectric\"": false, \""isAvailable\"": false, \""battery\"": null }"",""{ \""dockNumber\"": 7, \""isElectric\"": true, \""isAvailable\"": true, \""battery\"": 0.80000000000000004 }"",""{ \""dockNumber\"": 12, \""isElectric\"": false, \""isAvailable\"": true, \""battery\"": null }"",""{ \""dockNumber\"": 14, \""isElectric\"": false, \""isAvailable\"": true, \""battery\"": null }""}",,,,false,false,3096,,,,,0,39.99119,-75.17975,
POINT(-75.13339 39.97888),3097,"Berks Station, MFL","{-75.13339,39.97888}",23,8,14,14,0,0,14,8,FullService,Active,Active,1,1902 N. Front Street,Philadelphia,PA,19122,"{""{ \""dockNumber\"": 1, \""isElectric\"": false, \""isAvailable\"": true, \""battery\"": null }"",""{ \""dockNumber\"": 4, \""isElectric\"": false, \""isAvailable\"": true, \""battery\"": null }"",""{ \""dockNumber\"": 8, \""isElectric\"": false, \""isAvailable\"": true, \""battery\"": null }"",""{ \""dockNumber\"": 9, \""isElectric\"": false, \""isAvailable\"": true, \""battery\"": null }"",""{ \""dockNumber\"": 10, \""isElectric\"": false, \""isAvailable\"": true, \""battery\"": null }"",""{ \""dockNumber\"": 11, \""isElectric\"": false, \""isAvailable\"": true, \""battery\"": null }"",""{ \""dockNumber\"": 13, \""isElectric\"": false, \""isAvailable\"": false, \""battery\"": null }"",""{ \""dockNumber\"": 14, \""isElectric\"": false, \""isAvailable\"": true, \""battery\"": null }"",""{ \""dockNumber\"": 16, \""isElectric\"": false, \""isAvailable\"": true, \""battery\"": null }"",""{ \""dockNumber\"": 17, \""isElectric\"": false, \""isAvailable\"": true, \""battery\"": null }"",""{ \""dockNumber\"": 18, \""isElectric\"": false, \""isAvailable\"": true, \""battery\"": null }"",""{ \""dockNumber\"": 19, \""isElectric\"": false, \""isAvailable\"": true, \""battery\"": null }"",""{ \""dockNumber\"": 20, \""isElectric\"": false, \""isAvailable\"": true, \""battery\"": null }"",""{ \""dockNumber\"": 21, \""isElectric\"": false, \""isAvailable\"": true, \""battery\"": null }"",""{ \""dockNumber\"": 22, \""isElectric\"": false, \""isAvailable\"": true, \""battery\"": null }""}",,,,false,false,3097,,,,,0,39.97888,-75.13339,
POINT(-75.16042 39.93431),3098,10th & Federal,"{-75.16042,39.93431}",19,6,11,9,0,2,11,6,FullService,Active,Active,1,1201 S. 10th Street,Philadelphia,PA,19147,"{""{ \""dockNumber\"": 1, \""isElectric\"": false, \""isAvailable\"": true, \""battery\"": null }"",""{ \""dockNumber\"": 2, \""isElectric\"": false, \""isAvailable\"": true, \""battery\"": null }"",""{ \""dockNumber\"": 3, \""isElectric\"": false, \""isAvailable\"": true, \""battery\"": null }"",""{ \""dockNumber\"": 5, \""isElectric\"": false, \""isAvailable\"": true, \""battery\"": null }"",""{ \""dockNumber\"": 6, \""isElectric\"": false, \""isAvailable\"": true, \""battery\"": null }"",""{ \""dockNumber\"": 8, \""isElectric\"": false, \""isAvailable\"": true, \""battery\"": null }"",""{ \""dockNumber\"": 9, \""isElectric\"": true, \""isAvailable\"": true, \""battery\"": 0.80000000000000004 }"",""{ \""dockNumber\"": 11, \""isElectric\"": true, \""isAvailable\"": false, \""battery\"": 0.80000000000000004 }"",""{ \""dockNumber\"": 12, \""isElectric\"": true, \""isAvailable\"": false, \""battery\"": 0.80000000000000004 }"",""{ \""dockNumber\"": 13, \""isElectric\"": false, \""isAvailable\"": true, \""battery\"": null }"",""{ \""dockNumber\"": 14, \""isElectric\"": false, \""isAvailable\"": true, \""battery\"": null }"",""{ \""dockNumber\"": 16, \""isElectric\"": true, \""isAvailable\"": true, \""battery\"": 0.80000000000000004 }"",""{ \""dockNumber\"": 18, \""isElectric\"": false, \""isAvailable\"": true, \""battery\"": null }""}",,,,false,false,3098,,,,,0,39.93431,-75.16042,
POINT(-75.15094 39.93401),3099,4th & Washington,"{-75.15094,39.93401}",19,11,7,7,0,0,8,11,FullService,Active,Active,1,1110 S. 4th Street,Philadelphia,PA,19147,"{""{ \""dockNumber\"": 5, \""isElectric\"": false, \""isAvailable\"": true, \""battery\"": null }"",""{ \""dockNumber\"": 7, \""isElectric\"": false, \""isAvailable\"": true, \""battery\"": null }"",""{ \""dockNumber\"": 8, \""isElectric\"": false, \""isAvailable\"": true, \""battery\"": null }"",""{ \""dockNumber\"": 9, \""isElectric\"": false, \""isAvailable\"": true, \""battery\"": null }"",""{ \""dockNumber\"": 10, \""isElectric\"": false, \""isAvailable\"": true, \""battery\"": null }"",""{ \""dockNumber\"": 16, \""isElectric\"": false, \""isAvailable\"": true, \""battery\"": null }"",""{ \""dockNumber\"": 18, \""isElectric\"": false, \""isAvailable\"": true, \""battery\"": null }"",""{ \""dockNumber\"": 19, \""isElectric\"": false, \""isAvailable\"": false, \""battery\"": null }""}",,,,false,false,3099,,,,,0,39.93401,-75.15094,
POINT(-75.15103 39.92777),3100,Moyamensing & Tasker,"{-75.15103,39.92777}",38,13,23,22,0,1,23,13,FullService,Active,Active,1,1600 E. Moyamensing,Philadelphia,PA,19148,"{""{ \""dockNumber\"": 1, \""isElectric\"": false, \""isAvailable\"": true, \""battery\"": null }"",""{ \""dockNumber\"": 2, \""isElectric\"": true, \""isAvailable\"": true, \""battery\"": 0.80000000000000004 }"",""{ \""dockNumber\"": 4, \""isElectric\"": false, \""isAvailable\"": true, \""battery\"": null }"",""{ \""dockNumber\"": 8, \""isElectric\"": false, \""isAvailable\"": true, \""battery\"": null }"",""{ \""dockNumber\"": 13, \""isElectric\"": false, \""isAvailable\"": true, \""battery\"": null }"",""{ \""dockNumber\"": 15, \""isElectric\"": false, \""isAvailable\"": true, \""battery\"": null }"",""{ \""dockNumber\"": 18, \""isElectric\"": false, \""isAvailable\"": true, \""battery\"": null }"",""{ \""dockNumber\"": 19, \""isElectric\"": false, \""isAvailable\"": true, \""battery\"": null }"",""{ \""dockNumber\"": 21, \""isElectric\"": false, \""isAvailable\"": true, \""battery\"": null }"",""{ \""dockNumber\"": 22, \""isElectric\"": false, \""isAvailable\"": true, \""battery\"": null }"",""{ \""dockNumber\"": 23, \""isElectric\"": false, \""isAvailable\"": false, \""battery\"": null }"",""{ \""dockNumber\"": 24, \""isElectric\"": false, \""isAvailable\"": true, \""battery\"": null }"",""{ \""dockNumber\"": 25, \""isElectric\"": false, \""isAvailable\"": true, \""battery\"": null }"",""{ \""dockNumber\"": 27, \""isElectric\"": false, \""isAvailable\"": false, \""battery\"": null }"",""{ \""dockNumber\"": 28, \""isElectric\"": false, \""isAvailable\"": true, \""battery\"": null }"",""{ \""dockNumber\"": 29, \""isElectric\"": false, \""isAvailable\"": true, \""battery\"": null }"",""{ \""dockNumber\"": 30, \""isElectric\"": false, \""isAvailable\"": true, \""battery\"": null }"",""{ \""dockNumber\"": 31, \""isElectric\"": false, \""isAvailable\"": true, \""battery\"": null }"",""{ \""dockNumber\"": 32, \""isElectric\"": false, \""isAvailable\"": true, \""battery\"": null }"",""{ \""dockNumber\"": 33, \""isElectric\"": false, \""isAvailable\"": true, \""battery\"": null }"",""{ \""dockNumber\"": 34, \""isElectric\"": false, \""isAvailable\"": true, \""battery\"": null }"",""{ \""dockNumber\"": 35, \""isElectric\"": false, \""isAvailable\"": true, \""battery\"": null }"",""{ \""dockNumber\"": 36, \""isElectric\"": false, \""isAvailable\"": true, \""battery\"": null }"",""{ \""dockNumber\"": 37, \""isElectric\"": false, \""isAvailable\"": true, \""battery\"": null }"",""{ \""dockNumber\"": 38, \""isElectric\"": false, \""isAvailable\"": true, \""battery\"": null }""}",,,,false,false,3100,,,,,0,39.92777,-75.15103,
POINT(-75.21825 39.95373),3112,48th & Spruce,"{-75.21825,39.95373}",18,10,6,3,0,3,6,10,FullService,Active,Active,1,310 S. 48th Street,Philadelphia,PA,19139,"{""{ \""dockNumber\"": 1, \""isElectric\"": false, \""isAvailable\"": true, \""battery\"": null }"",""{ \""dockNumber\"": 2, \""isElectric\"": true, \""isAvailable\"": false, \""battery\"": 0.80000000000000004 }"",""{ \""dockNumber\"": 4, \""isElectric\"": false, \""isAvailable\"": true, \""battery\"": null }"",""{ \""dockNumber\"": 6, \""isElectric\"": true, \""isAvailable\"": false, \""battery\"": 0.80000000000000004 }"",""{ \""dockNumber\"": 7, \""isElectric\"": true, \""isAvailable\"": true, \""battery\"": 0.80000000000000004 }"",""{ \""dockNumber\"": 8, \""isElectric\"": false, \""isAvailable\"": true, \""battery\"": null }"",""{ \""dockNumber\"": 12, \""isElectric\"": true, \""isAvailable\"": true, \""battery\"": 0.80000000000000004 }"",""{ \""dockNumber\"": 14, \""isElectric\"": true, \""isAvailable\"": true, \""battery\"": 0.80000000000000004 }""}",,,,false,false,3112,,,,,0,39.95373,-75.21825,
POINT(-75.15955 39.94295),3101,11th & South,"{-75.15955,39.94295}",18,1,14,14,0,0,14,4,FullService,Active,Active,1,1015 South Street,Philadelphia,PA,19147,"{""{ \""dockNumber\"": 1, \""isElectric\"": false, \""isAvailable\"": false, \""battery\"": null }"",""{ \""dockNumber\"": 2, \""isElectric\"": false, \""isAvailable\"": true, \""battery\"": null }"",""{ \""dockNumber\"": 3, \""isElectric\"": false, \""isAvailable\"": true, \""battery\"": null }"",""{ \""dockNumber\"": 5, \""isElectric\"": false, \""isAvailable\"": true, \""battery\"": null }"",""{ \""dockNumber\"": 6, \""isElectric\"": false, \""isAvailable\"": false, \""battery\"": null }"",""{ \""dockNumber\"": 7, \""isElectric\"": false, \""isAvailable\"": true, \""battery\"": null }"",""{ \""dockNumber\"": 8, \""isElectric\"": false, \""isAvailable\"": true, \""battery\"": null }"",""{ \""dockNumber\"": 9, \""isElectric\"": false, \""isAvailable\"": true, \""battery\"": null }"",""{ \""dockNumber\"": 10, \""isElectric\"": false, \""isAvailable\"": false, \""battery\"": null }"",""{ \""dockNumber\"": 11, \""isElectric\"": false, \""isAvailable\"": true, \""battery\"": null }"",""{ \""dockNumber\"": 12, \""isElectric\"": false, \""isAvailable\"": true, \""battery\"": null }"",""{ \""dockNumber\"": 13, \""isElectric\"": false, \""isAvailable\"": true, \""battery\"": null }"",""{ \""dockNumber\"": 14, \""isElectric\"": false, \""isAvailable\"": true, \""battery\"": null }"",""{ \""dockNumber\"": 15, \""isElectric\"": false, \""isAvailable\"": true, \""battery\"": null }"",""{ \""dockNumber\"": 16, \""isElectric\"": false, \""isAvailable\"": true, \""battery\"": null }"",""{ \""dockNumber\"": 17, \""isElectric\"": false, \""isAvailable\"": true, \""battery\"": null }"",""{ \""dockNumber\"": 18, \""isElectric\"": false, \""isAvailable\"": true, \""battery\"": null }""}",,,,false,false,3101,,,,,0,39.94295,-75.15955,
POINT(-75.17952 39.96759),3102,Pennsylvania & Fairmount Perelman Building,"{-75.17952,39.96759}",26,9,15,15,0,0,15,9,FullService,Active,Active,1,2601 Pennsylvania Avenue,Philadelphia,PA,19130,"{""{ \""dockNumber\"": 1, \""isElectric\"": false, \""isAvailable\"": false, \""battery\"": null }"",""{ \""dockNumber\"": 2, \""isElectric\"": false, \""isAvailable\"": true, \""battery\"": null }"",""{ \""dockNumber\"": 4, \""isElectric\"": false, \""isAvailable\"": true, \""battery\"": null }"",""{ \""dockNumber\"": 5, \""isElectric\"": false, \""isAvailable\"": true, \""battery\"": null }"",""{ \""dockNumber\"": 7, \""isElectric\"": false, \""isAvailable\"": true, \""battery\"": null }"",""{ \""dockNumber\"": 8, \""isElectric\"": false, \""isAvailable\"": true, \""battery\"": null }"",""{ \""dockNumber\"": 9, \""isElectric\"": false, \""isAvailable\"": true, \""battery\"": null }"",""{ \""dockNumber\"": 10, \""isElectric\"": false, \""isAvailable\"": true, \""battery\"": null }"",""{ \""dockNumber\"": 11, \""isElectric\"": false, \""isAvailable\"": true, \""battery\"": null }"",""{ \""dockNumber\"": 12, \""isElectric\"": false, \""isAvailable\"": true, \""battery\"": null }"",""{ \""dockNumber\"": 13, \""isElectric\"": false, \""isAvailable\"": true, \""battery\"": null }"",""{ \""dockNumber\"": 15, \""isElectric\"": false, \""isAvailable\"": true, \""battery\"": null }"",""{ \""dockNumber\"": 17, \""isElectric\"": false, \""isAvailable\"": true, \""battery\"": null }"",""{ \""dockNumber\"": 18, \""isElectric\"": false, \""isAvailable\"": true, \""battery\"": null }"",""{ \""dockNumber\"": 22, \""isElectric\"": false, \""isAvailable\"": true, \""battery\"": null }"",""{ \""dockNumber\"": 25, \""isElectric\"": false, \""isAvailable\"": true, \""battery\"": null }"",""{ \""dockNumber\"": 26, \""isElectric\"": false, \""isAvailable\"": false, \""battery\"": null }""}",,,,false,false,3102,,,,,0,39.96759,-75.17952,
POINT(-75.19209 39.96664),3104,34th & Mantua,"{-75.19209,39.96664}",13,8,3,1,0,2,3,8,FullService,Active,Active,1,712 N. 34th Street,Philadelphia,PA,19104,"{""{ \""dockNumber\"": 1, \""isElectric\"": false, \""isAvailable\"": false, \""battery\"": null }"",""{ \""dockNumber\"": 2, \""isElectric\"": false, \""isAvailable\"": false, \""battery\"": null }"",""{ \""dockNumber\"": 7, \""isElectric\"": false, \""isAvailable\"": true, \""battery\"": null }"",""{ \""dockNumber\"": 11, \""isElectric\"": true, \""isAvailable\"": true, \""battery\"": 0.80000000000000004 }"",""{ \""dockNumber\"": 12, \""isElectric\"": true, \""isAvailable\"": true, \""battery\"": 0.80000000000000004 }""}",,,,false,false,3104,,,,,0,39.96664,-75.19209,
POINT(-75.18637 39.99179),3106,33rd & Dauphin,"{-75.18637,39.99179}",18,14,2,1,0,1,2,14,FullService,Active,Active,1,2300 N. 33rd Street,Philadelphia,PA,19132,"{""{ \""dockNumber\"": 2, \""isElectric\"": true, \""isAvailable\"": true, \""battery\"": 0.80000000000000004 }"",""{ \""dockNumber\"": 4, \""isElectric\"": false, \""isAvailable\"": false, \""battery\"": null }"",""{ \""dockNumber\"": 6, \""isElectric\"": false, \""isAvailable\"": true, \""battery\"": null }"",""{ \""dockNumber\"": 8, \""isElectric\"": true, \""isAvailable\"": false, \""battery\"": 0.80000000000000004 }""}",,,,false,false,3106,,,,,0,39.99179,-75.18637,
POINT(-75.18866 39.98203),3107,33rd & Reservoir,"{-75.18866,39.98203}",18,14,1,1,0,0,1,15,FullService,Active,Active,1,1626 N. 33rd Street,Philadelphia,PA,19121,"{""{ \""dockNumber\"": 5, \""isElectric\"": false, \""isAvailable\"": false, \""battery\"": null }"",""{ \""dockNumber\"": 15, \""isElectric\"": false, \""isAvailable\"": true, \""battery\"": null }"",""{ \""dockNumber\"": 16, \""isElectric\"": true, \""isAvailable\"": false, \""battery\"": 0.80000000000000004 }"",""{ \""dockNumber\"": 18, \""isElectric\"": false, \""isAvailable\"": false, \""battery\"": null }""}",,,,false,false,3107,,,,,0,39.98203,-75.18866,
POINT(-75.16551 39.95316),3108,15th & Market,"{-75.16551,39.95316}",22,12,6,5,0,1,7,12,FullService,Unavailable,Unresponsive,1,1515 Market Street,Philadelphia,PA,19102,"{""{ \""dockNumber\"": 2, \""isElectric\"": false, \""isAvailable\"": true, \""battery\"": null }"",""{ \""dockNumber\"": 4, \""isElectric\"": true, \""isAvailable\"": false, \""battery\"": 0.80000000000000004 }"",""{ \""dockNumber\"": 5, \""isElectric\"": false, \""isAvailable\"": false, \""battery\"": null }"",""{ \""dockNumber\"": 8, \""isElectric\"": false, \""isAvailable\"": true, \""battery\"": null }"",""{ \""dockNumber\"": 11, \""isElectric\"": false, \""isAvailable\"": true, \""battery\"": null }"",""{ \""dockNumber\"": 13, \""isElectric\"": false, \""isAvailable\"": true, \""battery\"": null }"",""{ \""dockNumber\"": 15, \""isElectric\"": true, \""isAvailable\"": true, \""battery\"": 0.80000000000000004 }"",""{ \""dockNumber\"": 17, \""isElectric\"": false, \""isAvailable\"": false, \""battery\"": null }"",""{ \""dockNumber\"": 19, \""isElectric\"": false, \""isAvailable\"": true, \""battery\"": null }"",""{ \""dockNumber\"": 22, \""isElectric\"": false, \""isAvailable\"": true, \""battery\"": null }""}",,,,false,false,3108,,,,,0,39.95316,-75.16551,
POINT(-75.13641 39.96175),3110,Del. River Trail & Penn St.,"{-75.13641,39.96175}",19,17,2,2,0,0,2,17,FullService,Active,Active,1,779 Delaware Ave,Philadelphia,PA,19123,"{""{ \""dockNumber\"": 1, \""isElectric\"": false, \""isAvailable\"": true, \""battery\"": null }"",""{ \""dockNumber\"": 18, \""isElectric\"": false, \""isAvailable\"": true, \""battery\"": null }""}",,,,false,false,3110,,,,,0,39.96175,-75.13641,
POINT(-75.21323 39.97779),3111,"Parkside & Belmont, Case Building","{-75.21323,39.97779}",14,10,3,2,0,1,3,10,FullService,Active,Active,1,4601 Parkside Ave,Philadelphia,PA,19104,"{""{ \""dockNumber\"": 3, \""isElectric\"": false, \""isAvailable\"": true, \""battery\"": null }"",""{ \""dockNumber\"": 7, \""isElectric\"": true, \""isAvailable\"": true, \""battery\"": 0.80000000000000004 }"",""{ \""dockNumber\"": 9, \""isElectric\"": true, \""isAvailable\"": false, \""battery\"": 0.80000000000000004 }"",""{ \""dockNumber\"": 11, \""isElectric\"": false, \""isAvailable\"": true, \""battery\"": null }""}",,,,false,false,3111,,,,,0,39.97779,-75.21323,
POINT(-75.17407 39.95381),3156,20th & Market,"{-75.17407,39.95381}",22,15,5,4,0,1,5,16,FullService,Active,Active,1,2005 market street,Philadelphia,PA,19103,"{""{ \""dockNumber\"": 1, \""isElectric\"": false, \""isAvailable\"": true, \""battery\"": null }"",""{ \""dockNumber\"": 2, \""isElectric\"": false, \""isAvailable\"": true, \""battery\"": null }"",""{ \""dockNumber\"": 3, \""isElectric\"": false, \""isAvailable\"": true, \""battery\"": null }"",""{ \""dockNumber\"": 4, \""isElectric\"": false, \""isAvailable\"": false, \""battery\"": null }"",""{ \""dockNumber\"": 6, \""isElectric\"": false, \""isAvailable\"": true, \""battery\"": null }"",""{ \""dockNumber\"": 12, \""isElectric\"": true, \""isAvailable\"": true, \""battery\"": 0.80000000000000004 }"",""{ \""dockNumber\"": 14, \""isElectric\"": true, \""isAvailable\"": false, \""battery\"": 0.25 }""}",,,,false,false,3156,,,,,0,39.95381,-75.17407,
POINT(-75.18012 39.93775),3114,22nd & Federal,"{-75.18012,39.93775}",17,2,15,13,0,2,15,2,FullService,Active,Active,1,22nd & Federal St.,Philadelphia,PA,19146,"{""{ \""dockNumber\"": 2, \""isElectric\"": false, \""isAvailable\"": true, \""battery\"": null }"",""{ \""dockNumber\"": 3, \""isElectric\"": false, \""isAvailable\"": true, \""battery\"": null }"",""{ \""dockNumber\"": 4, \""isElectric\"": false, \""isAvailable\"": true, \""battery\"": null }"",""{ \""dockNumber\"": 5, \""isElectric\"": false, \""isAvailable\"": true, \""battery\"": null }"",""{ \""dockNumber\"": 7, \""isElectric\"": false, \""isAvailable\"": true, \""battery\"": null }"",""{ \""dockNumber\"": 8, \""isElectric\"": false, \""isAvailable\"": true, \""battery\"": null }"",""{ \""dockNumber\"": 9, \""isElectric\"": false, \""isAvailable\"": true, \""battery\"": null }"",""{ \""dockNumber\"": 10, \""isElectric\"": true, \""isAvailable\"": true, \""battery\"": 0.80000000000000004 }"",""{ \""dockNumber\"": 11, \""isElectric\"": false, \""isAvailable\"": true, \""battery\"": null }"",""{ \""dockNumber\"": 12, \""isElectric\"": true, \""isAvailable\"": true, \""battery\"": 0.80000000000000004 }"",""{ \""dockNumber\"": 13, \""isElectric\"": false, \""isAvailable\"": true, \""battery\"": null }"",""{ \""dockNumber\"": 14, \""isElectric\"": false, \""isAvailable\"": true, \""battery\"": null }"",""{ \""dockNumber\"": 15, \""isElectric\"": false, \""isAvailable\"": true, \""battery\"": null }"",""{ \""dockNumber\"": 16, \""isElectric\"": false, \""isAvailable\"": true, \""battery\"": null }"",""{ \""dockNumber\"": 17, \""isElectric\"": false, \""isAvailable\"": true, \""battery\"": null }""}",,,,false,false,3114,,,,,0,39.93775,-75.18012,
POINT(-75.16757 39.97263),3115,"19th & Girard, PTTI","{-75.16757,39.97263}",23,15,7,5,0,2,7,15,FullService,Active,Active,1,1901 W. Girard St..,Philadelphia,PA,19130,"{""{ \""dockNumber\"": 12, \""isElectric\"": true, \""isAvailable\"": true, \""battery\"": 0.80000000000000004 }"",""{ \""dockNumber\"": 14, \""isElectric\"": false, \""isAvailable\"": false, \""battery\"": null }"",""{ \""dockNumber\"": 16, \""isElectric\"": false, \""isAvailable\"": true, \""battery\"": null }"",""{ \""dockNumber\"": 17, \""isElectric\"": false, \""isAvailable\"": true, \""battery\"": null }"",""{ \""dockNumber\"": 19, \""isElectric\"": false, \""isAvailable\"": true, \""battery\"": null }"",""{ \""dockNumber\"": 20, \""isElectric\"": true, \""isAvailable\"": true, \""battery\"": 0.80000000000000004 }"",""{ \""dockNumber\"": 22, \""isElectric\"": false, \""isAvailable\"": true, \""battery\"": null }"",""{ \""dockNumber\"": 23, \""isElectric\"": false, \""isAvailable\"": true, \""battery\"": null }""}",,,,false,false,3115,,,,,0,39.97263,-75.16757,
POINT(-75.17198 39.96006),3116,Barnes Foundation,"{-75.17198,39.96006}",21,19,2,2,0,0,2,19,FullService,Active,Active,1,2025 Benjamin Franklin Pkwy,Philadelphia,PA,19122,"{""{ \""dockNumber\"": 6, \""isElectric\"": false, \""isAvailable\"": true, \""battery\"": null }"",""{ \""dockNumber\"": 20, \""isElectric\"": false, \""isAvailable\"": true, \""battery\"": null }""}",,,,false,false,3116,,,,,0,39.96006,-75.17198,
POINT(-75.22399 39.97841),3117,ParkWest Town Center,"{-75.22399,39.97841}",19,16,2,0,0,1,3,16,FullService,Active,Active,1,1575 N 52nd St.,Philadelphia,PA,19131,"{""{ \""dockNumber\"": 1, \""isElectric\"": true, \""isAvailable\"": true, \""battery\"": 0.25 }"",""{ \""dockNumber\"": 3, \""isElectric\"": true, \""isAvailable\"": true, \""battery\"": 0.80000000000000004 }"",""{ \""dockNumber\"": 9, \""isElectric\"": false, \""isAvailable\"": false, \""battery\"": null }""}",,,,false,false,3117,,,,,0,39.97841,-75.22399,
POINT(-75.21323 39.95866),3118,"46th Street Station, MFL","{-75.21323,39.95866}",23,11,11,8,0,3,11,11,FullService,Active,Active,1,4628 Market Street,Philadelphia,PA,19139,"{""{ \""dockNumber\"": 4, \""isElectric\"": false, \""isAvailable\"": true, \""battery\"": null }"",""{ \""dockNumber\"": 9, \""isElectric\"": false, \""isAvailable\"": true, \""battery\"": null }"",""{ \""dockNumber\"": 12, \""isElectric\"": false, \""isAvailable\"": true, \""battery\"": null }"",""{ \""dockNumber\"": 13, \""isElectric\"": true, \""isAvailable\"": true, \""battery\"": 0.80000000000000004 }"",""{ \""dockNumber\"": 14, \""isElectric\"": true, \""isAvailable\"": true, \""battery\"": 0.80000000000000004 }"",""{ \""dockNumber\"": 15, \""isElectric\"": false, \""isAvailable\"": false, \""battery\"": null }"",""{ \""dockNumber\"": 16, \""isElectric\"": false, \""isAvailable\"": true, \""battery\"": null }"",""{ \""dockNumber\"": 17, \""isElectric\"": false, \""isAvailable\"": true, \""battery\"": null }"",""{ \""dockNumber\"": 19, \""isElectric\"": false, \""isAvailable\"": true, \""battery\"": null }"",""{ \""dockNumber\"": 21, \""isElectric\"": false, \""isAvailable\"": true, \""battery\"": null }"",""{ \""dockNumber\"": 22, \""isElectric\"": false, \""isAvailable\"": true, \""battery\"": null }"",""{ \""dockNumber\"": 23, \""isElectric\"": true, \""isAvailable\"": true, \""battery\"": 0.80000000000000004 }""}",,,,false,false,3118,,,,,0,39.95866,-75.21323,
POINT(-75.20799 39.96674),3119,42nd & Lancaster,"{-75.20799,39.96674}",17,14,3,3,0,0,3,14,FullService,Active,Active,1,4209 Lancaster Avenue,Philadelphia,PA,19104,"{""{ \""dockNumber\"": 1, \""isElectric\"": false, \""isAvailable\"": true, \""battery\"": null }"",""{ \""dockNumber\"": 11, \""isElectric\"": false, \""isAvailable\"": true, \""battery\"": null }"",""{ \""dockNumber\"": 17, \""isElectric\"": false, \""isAvailable\"": true, \""battery\"": null }""}",,,,false,false,3119,,,,,0,39.96674,-75.20799,
POINT(-75.18669 39.97522),3120,31st & Girard,"{-75.18669,39.97522}",19,4,12,10,0,1,12,5,FullService,Active,Active,1,1210 N. 31st Street,Philadelphia,PA,19121,"{""{ \""dockNumber\"": 1, \""isElectric\"": false, \""isAvailable\"": true, \""battery\"": null }"",""{ \""dockNumber\"": 2, \""isElectric\"": false, \""isAvailable\"": true, \""battery\"": null }"",""{ \""dockNumber\"": 3, \""isElectric\"": false, \""isAvailable\"": true, \""battery\"": null }"",""{ \""dockNumber\"": 4, \""isElectric\"": false, \""isAvailable\"": false, \""battery\"": null }"",""{ \""dockNumber\"": 5, \""isElectric\"": true, \""isAvailable\"": true, \""battery\"": 0.80000000000000004 }"",""{ \""dockNumber\"": 6, \""isElectric\"": false, \""isAvailable\"": false, \""battery\"": null }"",""{ \""dockNumber\"": 8, \""isElectric\"": true, \""isAvailable\"": true, \""battery\"": 0.25 }"",""{ \""dockNumber\"": 9, \""isElectric\"": true, \""isAvailable\"": false, \""battery\"": 0.80000000000000004 }"",""{ \""dockNumber\"": 10, \""isElectric\"": false, \""isAvailable\"": true, \""battery\"": null }"",""{ \""dockNumber\"": 12, \""isElectric\"": false, \""isAvailable\"": true, \""battery\"": null }"",""{ \""dockNumber\"": 13, \""isElectric\"": false, \""isAvailable\"": true, \""battery\"": null }"",""{ \""dockNumber\"": 14, \""isElectric\"": false, \""isAvailable\"": true, \""battery\"": null }"",""{ \""dockNumber\"": 16, \""isElectric\"": false, \""isAvailable\"": true, \""battery\"": null }"",""{ \""dockNumber\"": 17, \""isElectric\"": false, \""isAvailable\"": true, \""battery\"": null }"",""{ \""dockNumber\"": 18, \""isElectric\"": false, \""isAvailable\"": true, \""battery\"": null }""}",,,,false,false,3120,,,,,0,39.97522,-75.18669,
POINT(-75.18022 39.97414),3121,27th & Girard,"{-75.18022,39.97414}",18,11,6,5,0,1,6,11,FullService,Active,Active,1,2698 W Girard,Philadelphia,PA,19130,"{""{ \""dockNumber\"": 3, \""isElectric\"": false, \""isAvailable\"": true, \""battery\"": null }"",""{ \""dockNumber\"": 9, \""isElectric\"": true, \""isAvailable\"": true, \""battery\"": 0.80000000000000004 }"",""{ \""dockNumber\"": 13, \""isElectric\"": false, \""isAvailable\"": true, \""battery\"": null }"",""{ \""dockNumber\"": 14, \""isElectric\"": false, \""isAvailable\"": true, \""battery\"": null }"",""{ \""dockNumber\"": 16, \""isElectric\"": false, \""isAvailable\"": true, \""battery\"": null }"",""{ \""dockNumber\"": 17, \""isElectric\"": false, \""isAvailable\"": true, \""battery\"": null }"",""{ \""dockNumber\"": 18, \""isElectric\"": false, \""isAvailable\"": false, \""battery\"": null }""}",,,,false,false,3121,,,,,0,39.97414,-75.18022,
POINT(-75.17088 39.98004),3123,22nd & Cecil B. Moore,"{-75.17088,39.98004}",19,10,8,8,0,0,8,11,FullService,Active,Active,1,1637 N. 22nd Street,Philadelphia,PA,19121,"{""{ \""dockNumber\"": 1, \""isElectric\"": false, \""isAvailable\"": true, \""battery\"": null }"",""{ \""dockNumber\"": 4, \""isElectric\"": false, \""isAvailable\"": true, \""battery\"": null }"",""{ \""dockNumber\"": 6, \""isElectric\"": false, \""isAvailable\"": true, \""battery\"": null }"",""{ \""dockNumber\"": 8, \""isElectric\"": false, \""isAvailable\"": false, \""battery\"": null }"",""{ \""dockNumber\"": 11, \""isElectric\"": false, \""isAvailable\"": true, \""battery\"": null }"",""{ \""dockNumber\"": 13, \""isElectric\"": false, \""isAvailable\"": true, \""battery\"": null }"",""{ \""dockNumber\"": 15, \""isElectric\"": false, \""isAvailable\"": true, \""battery\"": null }"",""{ \""dockNumber\"": 17, \""isElectric\"": false, \""isAvailable\"": true, \""battery\"": null }"",""{ \""dockNumber\"": 18, \""isElectric\"": false, \""isAvailable\"": true, \""battery\"": null }""}",,,,false,false,3123,,,Touchscreen temporarily unavailable. Please use your Indego key to check out a bike.,,0,39.98004,-75.17088,
POINT(-75.13954 39.95362),3124,Race Street Pier,"{-75.13954,39.95362}",23,15,7,6,0,1,7,16,FullService,Active,Active,1,190 N Christopher Columbus Blvd (approx.),Philadelphia,PA,19106,"{""{ \""dockNumber\"": 2, \""isElectric\"": false, \""isAvailable\"": true, \""battery\"": null }"",""{ \""dockNumber\"": 3, \""isElectric\"": false, \""isAvailable\"": false, \""battery\"": null }"",""{ \""dockNumber\"": 4, \""isElectric\"": true, \""isAvailable\"": true, \""battery\"": 0.80000000000000004 }"",""{ \""dockNumber\"": 6, \""isElectric\"": false, \""isAvailable\"": true, \""battery\"": null }"",""{ \""dockNumber\"": 12, \""isElectric\"": false, \""isAvailable\"": true, \""battery\"": null }"",""{ \""dockNumber\"": 16, \""isElectric\"": false, \""isAvailable\"": true, \""battery\"": null }"",""{ \""dockNumber\"": 20, \""isElectric\"": false, \""isAvailable\"": true, \""battery\"": null }"",""{ \""dockNumber\"": 23, \""isElectric\"": false, \""isAvailable\"": true, \""battery\"": null }""}",,,,false,false,3124,,,,,0,39.95362,-75.13954,
POINT(-75.16735 39.94391),3125,15th & South,"{-75.16735,39.94391}",19,12,4,3,0,1,4,14,FullService,Active,Active,1,1505 South St. ,Philadelphia ,PA,19146,"{""{ \""dockNumber\"": 1, \""isElectric\"": true, \""isAvailable\"": false, \""battery\"": 0.80000000000000004 }"",""{ \""dockNumber\"": 3, \""isElectric\"": false, \""isAvailable\"": true, \""battery\"": null }"",""{ \""dockNumber\"": 4, \""isElectric\"": true, \""isAvailable\"": true, \""battery\"": 0.80000000000000004 }"",""{ \""dockNumber\"": 6, \""isElectric\"": false, \""isAvailable\"": true, \""battery\"": null }"",""{ \""dockNumber\"": 17, \""isElectric\"": false, \""isAvailable\"": false, \""battery\"": null }"",""{ \""dockNumber\"": 18, \""isElectric\"": false, \""isAvailable\"": true, \""battery\"": null }"",""{ \""dockNumber\"": 19, \""isElectric\"": false, \""isAvailable\"": false, \""battery\"": null }""}",,,,false,false,3125,,,,,0,39.94391,-75.16735,
POINT(-75.17021 39.92884),3150,"15th & Castle, DiSilvestro Playground","{-75.17021,39.92884}",17,6,6,2,0,4,6,9,FullService,Active,Active,1,1487 Castle Street,Philadelphia,PA,19145,"{""{ \""dockNumber\"": 1, \""isElectric\"": false, \""isAvailable\"": false, \""battery\"": null }"",""{ \""dockNumber\"": 2, \""isElectric\"": true, \""isAvailable\"": true, \""battery\"": 0.80000000000000004 }"",""{ \""dockNumber\"": 5, \""isElectric\"": false, \""isAvailable\"": true, \""battery\"": null }"",""{ \""dockNumber\"": 6, \""isElectric\"": false, \""isAvailable\"": false, \""battery\"": null }"",""{ \""dockNumber\"": 8, \""isElectric\"": true, \""isAvailable\"": true, \""battery\"": 0.80000000000000004 }"",""{ \""dockNumber\"": 9, \""isElectric\"": true, \""isAvailable\"": true, \""battery\"": 0.80000000000000004 }"",""{ \""dockNumber\"": 10, \""isElectric\"": true, \""isAvailable\"": true, \""battery\"": 0.80000000000000004 }"",""{ \""dockNumber\"": 13, \""isElectric\"": false, \""isAvailable\"": true, \""battery\"": null }"",""{ \""dockNumber\"": 15, \""isElectric\"": false, \""isAvailable\"": false, \""battery\"": null }"",""{ \""dockNumber\"": 16, \""isElectric\"": false, \""isAvailable\"": false, \""battery\"": null }"",""{ \""dockNumber\"": 17, \""isElectric\"": false, \""isAvailable\"": false, \""battery\"": null }""}",,,,false,false,3150,,,,,0,39.92884,-75.17021,
POINT(-75.20286 39.94993),3152,"40th & Baltimore, Trolley Portal","{-75.20286,39.94993}",17,16,1,1,0,0,1,16,FullService,Active,Active,1,"3960 Baltimore Ave,",Philadelphia,PA,19104,"{""{ \""dockNumber\"": 12, \""isElectric\"": false, \""isAvailable\"": true, \""battery\"": null }""}",,,,false,false,3152,,,,,0,39.94993,-75.20286,
POINT(-75.12994 39.97216),3153,"Thompson & Palmer, Adaire School","{-75.12994,39.97216}",11,5,6,5,0,1,6,5,FullService,Active,Active,1,448 East Thompson Street,Philadelphia,PA,19125,"{""{ \""dockNumber\"": 1, \""isElectric\"": false, \""isAvailable\"": true, \""battery\"": null }"",""{ \""dockNumber\"": 4, \""isElectric\"": false, \""isAvailable\"": true, \""battery\"": null }"",""{ \""dockNumber\"": 6, \""isElectric\"": true, \""isAvailable\"": true, \""battery\"": 0.80000000000000004 }"",""{ \""dockNumber\"": 8, \""isElectric\"": false, \""isAvailable\"": true, \""battery\"": null }"",""{ \""dockNumber\"": 10, \""isElectric\"": false, \""isAvailable\"": true, \""battery\"": null }"",""{ \""dockNumber\"": 11, \""isElectric\"": false, \""isAvailable\"": true, \""battery\"": null }""}",,,,false,false,3153,,,,,0,39.97216,-75.12994,
POINT(-75.15821 39.95924),3154,12th & Callowhill,"{-75.15821,39.95924}",19,13,4,4,0,0,4,15,FullService,Active,Active,1,403 N. 12th Street,Philadelphia,PA,19123,"{""{ \""dockNumber\"": 2, \""isElectric\"": false, \""isAvailable\"": true, \""battery\"": null }"",""{ \""dockNumber\"": 4, \""isElectric\"": false, \""isAvailable\"": true, \""battery\"": null }"",""{ \""dockNumber\"": 7, \""isElectric\"": false, \""isAvailable\"": true, \""battery\"": null }"",""{ \""dockNumber\"": 11, \""isElectric\"": false, \""isAvailable\"": false, \""battery\"": null }"",""{ \""dockNumber\"": 13, \""isElectric\"": false, \""isAvailable\"": false, \""battery\"": null }"",""{ \""dockNumber\"": 15, \""isElectric\"": false, \""isAvailable\"": true, \""battery\"": null }""}",,,,false,false,3154,,,,,0,39.95924,-75.15821,
POINT(-75.16991 39.94892),3190,17th & Locust,"{-75.16991,39.94892}",30,24,4,2,0,2,4,25,FullService,Active,Active,1,1700 Locust Street,Philadelphia,PA,19103,"{""{ \""dockNumber\"": 1, \""isElectric\"": false, \""isAvailable\"": false, \""battery\"": null }"",""{ \""dockNumber\"": 3, \""isElectric\"": false, \""isAvailable\"": true, \""battery\"": null }"",""{ \""dockNumber\"": 6, \""isElectric\"": true, \""isAvailable\"": true, \""battery\"": 0.80000000000000004 }"",""{ \""dockNumber\"": 7, \""isElectric\"": true, \""isAvailable\"": true, \""battery\"": 0.80000000000000004 }"",""{ \""dockNumber\"": 13, \""isElectric\"": false, \""isAvailable\"": true, \""battery\"": null }"",""{ \""dockNumber\"": 15, \""isElectric\"": false, \""isAvailable\"": false, \""battery\"": null }""}",,,,false,false,3190,,,,,0,39.94892,-75.16991,
POINT(-75.15442 39.94018),3155,7th & Fitzwater,"{-75.15442,39.94018}",18,8,8,8,0,0,10,8,FullService,Active,Active,1,736 S. 7th St.,Philadelphia,PA,19147,"{""{ \""dockNumber\"": 1, \""isElectric\"": false, \""isAvailable\"": true, \""battery\"": null }"",""{ \""dockNumber\"": 2, \""isElectric\"": false, \""isAvailable\"": true, \""battery\"": null }"",""{ \""dockNumber\"": 3, \""isElectric\"": false, \""isAvailable\"": true, \""battery\"": null }"",""{ \""dockNumber\"": 4, \""isElectric\"": false, \""isAvailable\"": true, \""battery\"": null }"",""{ \""dockNumber\"": 5, \""isElectric\"": false, \""isAvailable\"": true, \""battery\"": null }"",""{ \""dockNumber\"": 10, \""isElectric\"": false, \""isAvailable\"": false, \""battery\"": null }"",""{ \""dockNumber\"": 11, \""isElectric\"": false, \""isAvailable\"": true, \""battery\"": null }"",""{ \""dockNumber\"": 15, \""isElectric\"": false, \""isAvailable\"": false, \""battery\"": null }"",""{ \""dockNumber\"": 16, \""isElectric\"": false, \""isAvailable\"": true, \""battery\"": null }"",""{ \""dockNumber\"": 17, \""isElectric\"": false, \""isAvailable\"": true, \""battery\"": null }""}",,,,false,false,3155,,,,,0,39.94018,-75.15442,
POINT(-75.15954 39.92545),3157,"8th & Mifflin, Bok Building","{-75.15954,39.92545}",18,1,17,16,0,1,17,1,FullService,Active,Active,1,808 Mifflin St.,Philadelphia,PA,19148,"{""{ \""dockNumber\"": 1, \""isElectric\"": false, \""isAvailable\"": true, \""battery\"": null }"",""{ \""dockNumber\"": 2, \""isElectric\"": false, \""isAvailable\"": true, \""battery\"": null }"",""{ \""dockNumber\"": 3, \""isElectric\"": false, \""isAvailable\"": true, \""battery\"": null }"",""{ \""dockNumber\"": 4, \""isElectric\"": false, \""isAvailable\"": true, \""battery\"": null }"",""{ \""dockNumber\"": 5, \""isElectric\"": false, \""isAvailable\"": true, \""battery\"": null }"",""{ \""dockNumber\"": 6, \""isElectric\"": false, \""isAvailable\"": true, \""battery\"": null }"",""{ \""dockNumber\"": 7, \""isElectric\"": false, \""isAvailable\"": true, \""battery\"": null }"",""{ \""dockNumber\"": 8, \""isElectric\"": false, \""isAvailable\"": true, \""battery\"": null }"",""{ \""dockNumber\"": 10, \""isElectric\"": true, \""isAvailable\"": true, \""battery\"": 0.80000000000000004 }"",""{ \""dockNumber\"": 11, \""isElectric\"": false, \""isAvailable\"": true, \""battery\"": null }"",""{ \""dockNumber\"": 12, \""isElectric\"": false, \""isAvailable\"": true, \""battery\"": null }"",""{ \""dockNumber\"": 13, \""isElectric\"": false, \""isAvailable\"": true, \""battery\"": null }"",""{ \""dockNumber\"": 14, \""isElectric\"": false, \""isAvailable\"": true, \""battery\"": null }"",""{ \""dockNumber\"": 15, \""isElectric\"": false, \""isAvailable\"": true, \""battery\"": null }"",""{ \""dockNumber\"": 16, \""isElectric\"": false, \""isAvailable\"": true, \""battery\"": null }"",""{ \""dockNumber\"": 17, \""isElectric\"": false, \""isAvailable\"": true, \""battery\"": null }"",""{ \""dockNumber\"": 18, \""isElectric\"": false, \""isAvailable\"": true, \""battery\"": null }""}",,,,false,false,3157,,,,,0,39.92545,-75.15954,
POINT(-75.16904 39.92552),3158,Broad & Passyunk ,"{-75.16904,39.92552}",16,8,7,7,0,0,7,9,FullService,Active,Active,1,1384 McKean Street,Philadelphia,PA,19148,"{""{ \""dockNumber\"": 2, \""isElectric\"": false, \""isAvailable\"": true, \""battery\"": null }"",""{ \""dockNumber\"": 4, \""isElectric\"": false, \""isAvailable\"": true, \""battery\"": null }"",""{ \""dockNumber\"": 7, \""isElectric\"": false, \""isAvailable\"": false, \""battery\"": null }"",""{ \""dockNumber\"": 9, \""isElectric\"": false, \""isAvailable\"": true, \""battery\"": null }"",""{ \""dockNumber\"": 10, \""isElectric\"": false, \""isAvailable\"": true, \""battery\"": null }"",""{ \""dockNumber\"": 12, \""isElectric\"": false, \""isAvailable\"": true, \""battery\"": null }"",""{ \""dockNumber\"": 14, \""isElectric\"": false, \""isAvailable\"": true, \""battery\"": null }"",""{ \""dockNumber\"": 16, \""isElectric\"": false, \""isAvailable\"": true, \""battery\"": null }""}",,,,false,false,3158,,,,,0,39.92552,-75.16904,
POINT(-75.19862 39.95662),3160,38th & Market,"{-75.19862,39.95662}",40,32,7,5,0,1,7,32,FullService,Active,Active,1,3810 Market St.,Philadelphia,PA,19104,"{""{ \""dockNumber\"": 4, \""isElectric\"": false, \""isAvailable\"": false, \""battery\"": null }"",""{ \""dockNumber\"": 9, \""isElectric\"": false, \""isAvailable\"": true, \""battery\"": null }"",""{ \""dockNumber\"": 15, \""isElectric\"": false, \""isAvailable\"": true, \""battery\"": null }"",""{ \""dockNumber\"": 31, \""isElectric\"": false, \""isAvailable\"": true, \""battery\"": null }"",""{ \""dockNumber\"": 35, \""isElectric\"": true, \""isAvailable\"": true, \""battery\"": 0.80000000000000004 }"",""{ \""dockNumber\"": 37, \""isElectric\"": false, \""isAvailable\"": true, \""battery\"": null }"",""{ \""dockNumber\"": 39, \""isElectric\"": true, \""isAvailable\"": true, \""battery\"": 0.25 }"",""{ \""dockNumber\"": 40, \""isElectric\"": false, \""isAvailable\"": true, \""battery\"": null }""}",,,,false,false,3160,,,,,0,39.95662,-75.19862,
POINT(-75.18091 39.95486),3161,30th Street Station East,"{-75.18091,39.95486}",23,19,4,3,0,1,4,19,FullService,Active,Active,1,Market & Schuylkill Ave,Philadelphia,PA,19104,"{""{ \""dockNumber\"": 2, \""isElectric\"": false, \""isAvailable\"": true, \""battery\"": null }"",""{ \""dockNumber\"": 4, \""isElectric\"": false, \""isAvailable\"": true, \""battery\"": null }"",""{ \""dockNumber\"": 8, \""isElectric\"": false, \""isAvailable\"": true, \""battery\"": null }"",""{ \""dockNumber\"": 19, \""isElectric\"": true, \""isAvailable\"": true, \""battery\"": 0.80000000000000004 }""}",,,,false,false,3161,,,,,0,39.95486,-75.18091,
POINT(-75.18475 39.94595),3162,27th & South,"{-75.18475,39.94595}",34,25,6,5,0,1,6,25,FullService,Active,Active,1,630 Schuylkill Ave,Philadelphia,PA,19146,"{""{ \""dockNumber\"": 6, \""isElectric\"": true, \""isAvailable\"": true, \""battery\"": 0.80000000000000004 }"",""{ \""dockNumber\"": 7, \""isElectric\"": false, \""isAvailable\"": true, \""battery\"": null }"",""{ \""dockNumber\"": 9, \""isElectric\"": false, \""isAvailable\"": true, \""battery\"": null }"",""{ \""dockNumber\"": 10, \""isElectric\"": false, \""isAvailable\"": true, \""battery\"": null }"",""{ \""dockNumber\"": 26, \""isElectric\"": false, \""isAvailable\"": false, \""battery\"": null }"",""{ \""dockNumber\"": 29, \""isElectric\"": false, \""isAvailable\"": true, \""battery\"": null }"",""{ \""dockNumber\"": 30, \""isElectric\"": false, \""isAvailable\"": false, \""battery\"": null }"",""{ \""dockNumber\"": 31, \""isElectric\"": false, \""isAvailable\"": true, \""battery\"": null }"",""{ \""dockNumber\"": 34, \""isElectric\"": false, \""isAvailable\"": false, \""battery\"": null }""}",,,,false,false,3162,,,,,0,39.94595,-75.18475,
POINT(-75.18097 39.94974),3163,25th & Locust,"{-75.18097,39.94974}",21,11,8,8,0,0,8,13,FullService,Active,Active,1,229 S. 25th Street ,Philadelphia,PA,19122,"{""{ \""dockNumber\"": 3, \""isElectric\"": false, \""isAvailable\"": true, \""battery\"": null }"",""{ \""dockNumber\"": 4, \""isElectric\"": false, \""isAvailable\"": true, \""battery\"": null }"",""{ \""dockNumber\"": 6, \""isElectric\"": false, \""isAvailable\"": true, \""battery\"": null }"",""{ \""dockNumber\"": 8, \""isElectric\"": false, \""isAvailable\"": true, \""battery\"": null }"",""{ \""dockNumber\"": 13, \""isElectric\"": false, \""isAvailable\"": true, \""battery\"": null }"",""{ \""dockNumber\"": 16, \""isElectric\"": false, \""isAvailable\"": false, \""battery\"": null }"",""{ \""dockNumber\"": 17, \""isElectric\"": false, \""isAvailable\"": true, \""battery\"": null }"",""{ \""dockNumber\"": 19, \""isElectric\"": false, \""isAvailable\"": false, \""battery\"": null }"",""{ \""dockNumber\"": 20, \""isElectric\"": false, \""isAvailable\"": true, \""battery\"": null }"",""{ \""dockNumber\"": 21, \""isElectric\"": false, \""isAvailable\"": true, \""battery\"": null }""}",,,,false,false,3163,,,,,0,39.94974,-75.18097,
POINT(-75.16515 39.92814),3164,12th & Passyunk,"{-75.16515,39.92814}",18,10,8,6,0,2,8,10,FullService,Active,Active,1,1724 S. 12th St,Philadelphia,PA,19122,"{""{ \""dockNumber\"": 1, \""isElectric\"": true, \""isAvailable\"": true, \""battery\"": 0.80000000000000004 }"",""{ \""dockNumber\"": 2, \""isElectric\"": false, \""isAvailable\"": true, \""battery\"": null }"",""{ \""dockNumber\"": 3, \""isElectric\"": false, \""isAvailable\"": true, \""battery\"": null }"",""{ \""dockNumber\"": 6, \""isElectric\"": false, \""isAvailable\"": true, \""battery\"": null }"",""{ \""dockNumber\"": 8, \""isElectric\"": false, \""isAvailable\"": true, \""battery\"": null }"",""{ \""dockNumber\"": 9, \""isElectric\"": false, \""isAvailable\"": true, \""battery\"": null }"",""{ \""dockNumber\"": 10, \""isElectric\"": false, \""isAvailable\"": true, \""battery\"": null }"",""{ \""dockNumber\"": 13, \""isElectric\"": true, \""isAvailable\"": true, \""battery\"": 0.80000000000000004 }""}",,,,false,false,3164,,,,,0,39.92814,-75.16515,
POINT(-75.1782 39.95819),3165,24th & Race SRT,"{-75.1782,39.95819}",22,12,8,6,0,2,8,12,FullService,Active,Active,1,2317 Race St,Philadelphia,PA,19103,"{""{ \""dockNumber\"": 1, \""isElectric\"": false, \""isAvailable\"": true, \""battery\"": null }"",""{ \""dockNumber\"": 2, \""isElectric\"": false, \""isAvailable\"": true, \""battery\"": null }"",""{ \""dockNumber\"": 5, \""isElectric\"": false, \""isAvailable\"": false, \""battery\"": null }"",""{ \""dockNumber\"": 8, \""isElectric\"": true, \""isAvailable\"": true, \""battery\"": 0.80000000000000004 }"",""{ \""dockNumber\"": 11, \""isElectric\"": false, \""isAvailable\"": true, \""battery\"": null }"",""{ \""dockNumber\"": 13, \""isElectric\"": false, \""isAvailable\"": true, \""battery\"": null }"",""{ \""dockNumber\"": 15, \""isElectric\"": false, \""isAvailable\"": false, \""battery\"": null }"",""{ \""dockNumber\"": 18, \""isElectric\"": false, \""isAvailable\"": true, \""battery\"": null }"",""{ \""dockNumber\"": 19, \""isElectric\"": false, \""isAvailable\"": true, \""battery\"": null }"",""{ \""dockNumber\"": 21, \""isElectric\"": true, \""isAvailable\"": true, \""battery\"": 0.80000000000000004 }""}",,,,false,false,3165,,,,,0,39.95819,-75.1782,
POINT(-75.13445 39.97235),3166,Frankford & Belgrade,"{-75.13445,39.97235}",22,5,16,16,0,0,16,5,FullService,Active,Active,1,1424 Frankford Ave,Philadelphia,PA,19122,"{""{ \""dockNumber\"": 1, \""isElectric\"": false, \""isAvailable\"": true, \""battery\"": null }"",""{ \""dockNumber\"": 2, \""isElectric\"": false, \""isAvailable\"": true, \""battery\"": null }"",""{ \""dockNumber\"": 3, \""isElectric\"": false, \""isAvailable\"": true, \""battery\"": null }"",""{ \""dockNumber\"": 4, \""isElectric\"": false, \""isAvailable\"": false, \""battery\"": null }"",""{ \""dockNumber\"": 5, \""isElectric\"": false, \""isAvailable\"": true, \""battery\"": null }"",""{ \""dockNumber\"": 8, \""isElectric\"": false, \""isAvailable\"": true, \""battery\"": null }"",""{ \""dockNumber\"": 9, \""isElectric\"": false, \""isAvailable\"": true, \""battery\"": null }"",""{ \""dockNumber\"": 11, \""isElectric\"": false, \""isAvailable\"": true, \""battery\"": null }"",""{ \""dockNumber\"": 12, \""isElectric\"": false, \""isAvailable\"": true, \""battery\"": null }"",""{ \""dockNumber\"": 13, \""isElectric\"": false, \""isAvailable\"": true, \""battery\"": null }"",""{ \""dockNumber\"": 14, \""isElectric\"": false, \""isAvailable\"": true, \""battery\"": null }"",""{ \""dockNumber\"": 15, \""isElectric\"": false, \""isAvailable\"": true, \""battery\"": null }"",""{ \""dockNumber\"": 16, \""isElectric\"": false, \""isAvailable\"": true, \""battery\"": null }"",""{ \""dockNumber\"": 19, \""isElectric\"": false, \""isAvailable\"": true, \""battery\"": null }"",""{ \""dockNumber\"": 20, \""isElectric\"": false, \""isAvailable\"": true, \""battery\"": null }"",""{ \""dockNumber\"": 21, \""isElectric\"": false, \""isAvailable\"": true, \""battery\"": null }"",""{ \""dockNumber\"": 22, \""isElectric\"": false, \""isAvailable\"": true, \""battery\"": null }""}",,,,false,false,3166,,,,,0,39.97235,-75.13445,
POINT(-75.16028 39.95025),3167,12th & Chestnut,"{-75.16028,39.95025}",18,15,2,2,0,0,2,15,FullService,Active,Active,1,118 S. 12th St.,Philadelphia,PA,19122,"{""{ \""dockNumber\"": 7, \""isElectric\"": true, \""isAvailable\"": false, \""battery\"": 0.80000000000000004 }"",""{ \""dockNumber\"": 16, \""isElectric\"": false, \""isAvailable\"": true, \""battery\"": null }"",""{ \""dockNumber\"": 18, \""isElectric\"": false, \""isAvailable\"": true, \""battery\"": null }""}",,,,false,false,3167,,,,,0,39.95025,-75.16028,
POINT(-75.17394 39.95134),3168,20th & Sansom,"{-75.17394,39.95134}",23,18,3,2,0,0,3,19,FullService,Active,Active,1,129 S. 20th St.,Philadelphia,PA,19122,"{""{ \""dockNumber\"": 1, \""isElectric\"": false, \""isAvailable\"": false, \""battery\"": null }"",""{ \""dockNumber\"": 2, \""isElectric\"": false, \""isAvailable\"": true, \""battery\"": null }"",""{ \""dockNumber\"": 3, \""isElectric\"": false, \""isAvailable\"": false, \""battery\"": null }"",""{ \""dockNumber\"": 7, \""isElectric\"": false, \""isAvailable\"": true, \""battery\"": null }"",""{ \""dockNumber\"": 21, \""isElectric\"": true, \""isAvailable\"": true, \""battery\"": 0.25 }""}",,,,false,false,3168,,,,,0,39.95134,-75.17394,
POINT(-75.14263 39.95382),3169,2nd & Race,"{-75.14263,39.95382}",17,13,3,2,0,1,3,14,FullService,Active,Active,1,151 Race St,Philadelphia,PA,19106,"{""{ \""dockNumber\"": 1, \""isElectric\"": false, \""isAvailable\"": false, \""battery\"": null }"",""{ \""dockNumber\"": 2, \""isElectric\"": false, \""isAvailable\"": true, \""battery\"": null }"",""{ \""dockNumber\"": 3, \""isElectric\"": true, \""isAvailable\"": true, \""battery\"": 0.80000000000000004 }"",""{ \""dockNumber\"": 4, \""isElectric\"": false, \""isAvailable\"": true, \""battery\"": null }""}",,,,false,false,3169,,,,,0,39.95382,-75.14263,
POINT(-75.18134 39.94426),3170,Grays Ferry & Pemberton,"{-75.18134,39.94426}",16,6,8,8,0,0,8,7,FullService,Active,Active,1,2332 Grays Ferry Ave,Philadelphia,PA,19146,"{""{ \""dockNumber\"": 1, \""isElectric\"": false, \""isAvailable\"": true, \""battery\"": null }"",""{ \""dockNumber\"": 3, \""isElectric\"": false, \""isAvailable\"": true, \""battery\"": null }"",""{ \""dockNumber\"": 7, \""isElectric\"": false, \""isAvailable\"": true, \""battery\"": null }"",""{ \""dockNumber\"": 8, \""isElectric\"": false, \""isAvailable\"": true, \""battery\"": null }"",""{ \""dockNumber\"": 9, \""isElectric\"": false, \""isAvailable\"": false, \""battery\"": null }"",""{ \""dockNumber\"": 10, \""isElectric\"": false, \""isAvailable\"": true, \""battery\"": null }"",""{ \""dockNumber\"": 11, \""isElectric\"": false, \""isAvailable\"": true, \""battery\"": null }"",""{ \""dockNumber\"": 12, \""isElectric\"": false, \""isAvailable\"": true, \""battery\"": null }"",""{ \""dockNumber\"": 14, \""isElectric\"": false, \""isAvailable\"": false, \""battery\"": null }"",""{ \""dockNumber\"": 15, \""isElectric\"": false, \""isAvailable\"": true, \""battery\"": null }""}",,,,false,false,3170,,,,,0,39.94426,-75.18134,
POINT(-75.16582 39.96437),3204,17th & Green,"{-75.16582,39.96437}",22,17,4,4,0,0,4,18,FullService,Active,Active,1,1698 Green St,Philadelphia,PA,19130,"{""{ \""dockNumber\"": 1, \""isElectric\"": false, \""isAvailable\"": true, \""battery\"": null }"",""{ \""dockNumber\"": 6, \""isElectric\"": false, \""isAvailable\"": true, \""battery\"": null }"",""{ \""dockNumber\"": 14, \""isElectric\"": false, \""isAvailable\"": false, \""battery\"": null }"",""{ \""dockNumber\"": 18, \""isElectric\"": false, \""isAvailable\"": true, \""battery\"": null }"",""{ \""dockNumber\"": 21, \""isElectric\"": false, \""isAvailable\"": true, \""battery\"": null }""}",,,,false,false,3204,,,,,0,39.96437,-75.16582,
POINT(-75.17514 39.89629),3181,Crescent Park,"{-75.17514,39.89629}",20,1,16,16,0,0,16,3,FullService,Active,Active,1,"Crescent Park, Crescent Drive",Philadelphia,PA,19112,"{""{ \""dockNumber\"": 1, \""isElectric\"": false, \""isAvailable\"": false, \""battery\"": null }"",""{ \""dockNumber\"": 3, \""isElectric\"": false, \""isAvailable\"": true, \""battery\"": null }"",""{ \""dockNumber\"": 4, \""isElectric\"": false, \""isAvailable\"": true, \""battery\"": null }"",""{ \""dockNumber\"": 5, \""isElectric\"": false, \""isAvailable\"": true, \""battery\"": null }"",""{ \""dockNumber\"": 6, \""isElectric\"": false, \""isAvailable\"": true, \""battery\"": null }"",""{ \""dockNumber\"": 7, \""isElectric\"": false, \""isAvailable\"": false, \""battery\"": null }"",""{ \""dockNumber\"": 8, \""isElectric\"": false, \""isAvailable\"": true, \""battery\"": null }"",""{ \""dockNumber\"": 9, \""isElectric\"": false, \""isAvailable\"": true, \""battery\"": null }"",""{ \""dockNumber\"": 10, \""isElectric\"": false, \""isAvailable\"": true, \""battery\"": null }"",""{ \""dockNumber\"": 11, \""isElectric\"": false, \""isAvailable\"": true, \""battery\"": null }"",""{ \""dockNumber\"": 12, \""isElectric\"": false, \""isAvailable\"": true, \""battery\"": null }"",""{ \""dockNumber\"": 13, \""isElectric\"": false, \""isAvailable\"": true, \""battery\"": null }"",""{ \""dockNumber\"": 14, \""isElectric\"": false, \""isAvailable\"": true, \""battery\"": null }"",""{ \""dockNumber\"": 15, \""isElectric\"": false, \""isAvailable\"": true, \""battery\"": null }"",""{ \""dockNumber\"": 16, \""isElectric\"": false, \""isAvailable\"": false, \""battery\"": null }"",""{ \""dockNumber\"": 17, \""isElectric\"": false, \""isAvailable\"": true, \""battery\"": null }"",""{ \""dockNumber\"": 18, \""isElectric\"": false, \""isAvailable\"": true, \""battery\"": null }"",""{ \""dockNumber\"": 19, \""isElectric\"": false, \""isAvailable\"": true, \""battery\"": null }"",""{ \""dockNumber\"": 20, \""isElectric\"": false, \""isAvailable\"": true, \""battery\"": null }""}",,,,false,false,3181,,,,,0,39.89629,-75.17514,
POINT(-75.16953 39.95081),3182,17th & Sansom,"{-75.16953,39.95081}",21,11,6,6,0,0,8,11,FullService,Active,Active,1,17th & Sansom,Philadelphia,PA,19112,"{""{ \""dockNumber\"": 4, \""isElectric\"": false, \""isAvailable\"": false, \""battery\"": null }"",""{ \""dockNumber\"": 8, \""isElectric\"": false, \""isAvailable\"": false, \""battery\"": null }"",""{ \""dockNumber\"": 10, \""isElectric\"": false, \""isAvailable\"": true, \""battery\"": null }"",""{ \""dockNumber\"": 11, \""isElectric\"": false, \""isAvailable\"": true, \""battery\"": null }"",""{ \""dockNumber\"": 12, \""isElectric\"": false, \""isAvailable\"": true, \""battery\"": null }"",""{ \""dockNumber\"": 13, \""isElectric\"": false, \""isAvailable\"": true, \""battery\"": null }"",""{ \""dockNumber\"": 14, \""isElectric\"": false, \""isAvailable\"": true, \""battery\"": null }"",""{ \""dockNumber\"": 16, \""isElectric\"": true, \""isAvailable\"": true, \""battery\"": 0.80000000000000004 }"",""{ \""dockNumber\"": 19, \""isElectric\"": false, \""isAvailable\"": true, \""battery\"": null }"",""{ \""dockNumber\"": 20, \""isElectric\"": false, \""isAvailable\"": true, \""battery\"": null }""}",,,,false,false,3182,,,,,0,39.95081,-75.16953,
POINT(-75.17679 39.88994),3183,15th & Kitty Hawk,"{-75.17679,39.88994}",20,13,7,6,0,0,7,13,FullService,Active,Active,1,S. 15th & Kitty Hawk Ave,Philadelphia,PA,19112,"{""{ \""dockNumber\"": 2, \""isElectric\"": true, \""isAvailable\"": true, \""battery\"": 0.25 }"",""{ \""dockNumber\"": 6, \""isElectric\"": false, \""isAvailable\"": true, \""battery\"": null }"",""{ \""dockNumber\"": 9, \""isElectric\"": false, \""isAvailable\"": true, \""battery\"": null }"",""{ \""dockNumber\"": 12, \""isElectric\"": false, \""isAvailable\"": true, \""battery\"": null }"",""{ \""dockNumber\"": 13, \""isElectric\"": false, \""isAvailable\"": true, \""battery\"": null }"",""{ \""dockNumber\"": 17, \""isElectric\"": false, \""isAvailable\"": true, \""battery\"": null }"",""{ \""dockNumber\"": 19, \""isElectric\"": false, \""isAvailable\"": true, \""battery\"": null }""}",,,,false,false,3183,,,,,0,39.88994,-75.17679,
POINT(-75.19551 39.94573),3184,Health Sciences Drive,"{-75.19551,39.94573}",32,26,5,5,0,0,5,27,FullService,Active,Active,1,Health Sciences Drive,Philadelphia,PA,19104,"{""{ \""dockNumber\"": 3, \""isElectric\"": false, \""isAvailable\"": true, \""battery\"": null }"",""{ \""dockNumber\"": 6, \""isElectric\"": false, \""isAvailable\"": false, \""battery\"": null }"",""{ \""dockNumber\"": 7, \""isElectric\"": false, \""isAvailable\"": true, \""battery\"": null }"",""{ \""dockNumber\"": 8, \""isElectric\"": false, \""isAvailable\"": true, \""battery\"": null }"",""{ \""dockNumber\"": 10, \""isElectric\"": false, \""isAvailable\"": true, \""battery\"": null }"",""{ \""dockNumber\"": 32, \""isElectric\"": false, \""isAvailable\"": true, \""battery\"": null }""}",,,,false,false,3184,,,,,0,39.94573,-75.19551,
POINT(-75.15888 39.95169),3185,11th & Market ,"{-75.15888,39.95169}",21,11,8,6,0,2,8,13,FullService,Active,Active,1,11th & Market,Philadelphia,PA,19107,"{""{ \""dockNumber\"": 1, \""isElectric\"": false, \""isAvailable\"": true, \""battery\"": null }"",""{ \""dockNumber\"": 2, \""isElectric\"": false, \""isAvailable\"": true, \""battery\"": null }"",""{ \""dockNumber\"": 5, \""isElectric\"": true, \""isAvailable\"": true, \""battery\"": 0.80000000000000004 }"",""{ \""dockNumber\"": 6, \""isElectric\"": false, \""isAvailable\"": true, \""battery\"": null }"",""{ \""dockNumber\"": 9, \""isElectric\"": false, \""isAvailable\"": false, \""battery\"": null }"",""{ \""dockNumber\"": 11, \""isElectric\"": false, \""isAvailable\"": true, \""battery\"": null }"",""{ \""dockNumber\"": 16, \""isElectric\"": false, \""isAvailable\"": true, \""battery\"": null }"",""{ \""dockNumber\"": 17, \""isElectric\"": false, \""isAvailable\"": true, \""battery\"": null }"",""{ \""dockNumber\"": 18, \""isElectric\"": true, \""isAvailable\"": true, \""battery\"": 0.80000000000000004 }"",""{ \""dockNumber\"": 20, \""isElectric\"": false, \""isAvailable\"": false, \""battery\"": null }""}",,,,false,false,3185,,,,,0,39.95169,-75.15888,
POINT(-75.17168 39.89307),3186,12th & Normandy,"{-75.17168,39.89307}",15,7,7,7,0,0,7,8,FullService,Active,Active,1,12th & Normandy Place,Philadelphia,PA,19112,"{""{ \""dockNumber\"": 3, \""isElectric\"": false, \""isAvailable\"": true, \""battery\"": null }"",""{ \""dockNumber\"": 4, \""isElectric\"": false, \""isAvailable\"": true, \""battery\"": null }"",""{ \""dockNumber\"": 5, \""isElectric\"": false, \""isAvailable\"": true, \""battery\"": null }"",""{ \""dockNumber\"": 6, \""isElectric\"": false, \""isAvailable\"": false, \""battery\"": null }"",""{ \""dockNumber\"": 8, \""isElectric\"": false, \""isAvailable\"": true, \""battery\"": null }"",""{ \""dockNumber\"": 9, \""isElectric\"": false, \""isAvailable\"": true, \""battery\"": null }"",""{ \""dockNumber\"": 12, \""isElectric\"": false, \""isAvailable\"": true, \""battery\"": null }"",""{ \""dockNumber\"": 15, \""isElectric\"": false, \""isAvailable\"": true, \""battery\"": null }""}",,,,false,false,3186,,,,,0,39.89307,-75.17168,
POINT(-75.1734 39.90471),3188,"Broad & Pattison, BSL","{-75.1734,39.90471}",30,2,25,24,0,1,26,4,FullService,Active,Active,1,3701 Broad Street,Philadelphia,PA,19148,"{""{ \""dockNumber\"": 1, \""isElectric\"": false, \""isAvailable\"": true, \""battery\"": null }"",""{ \""dockNumber\"": 2, \""isElectric\"": false, \""isAvailable\"": true, \""battery\"": null }"",""{ \""dockNumber\"": 3, \""isElectric\"": false, \""isAvailable\"": true, \""battery\"": null }"",""{ \""dockNumber\"": 4, \""isElectric\"": false, \""isAvailable\"": true, \""battery\"": null }"",""{ \""dockNumber\"": 5, \""isElectric\"": false, \""isAvailable\"": true, \""battery\"": null }"",""{ \""dockNumber\"": 6, \""isElectric\"": false, \""isAvailable\"": true, \""battery\"": null }"",""{ \""dockNumber\"": 7, \""isElectric\"": false, \""isAvailable\"": true, \""battery\"": null }"",""{ \""dockNumber\"": 8, \""isElectric\"": false, \""isAvailable\"": true, \""battery\"": null }"",""{ \""dockNumber\"": 9, \""isElectric\"": false, \""isAvailable\"": false, \""battery\"": null }"",""{ \""dockNumber\"": 10, \""isElectric\"": false, \""isAvailable\"": true, \""battery\"": null }"",""{ \""dockNumber\"": 11, \""isElectric\"": false, \""isAvailable\"": true, \""battery\"": null }"",""{ \""dockNumber\"": 12, \""isElectric\"": false, \""isAvailable\"": true, \""battery\"": null }"",""{ \""dockNumber\"": 13, \""isElectric\"": false, \""isAvailable\"": true, \""battery\"": null }"",""{ \""dockNumber\"": 14, \""isElectric\"": false, \""isAvailable\"": true, \""battery\"": null }"",""{ \""dockNumber\"": 15, \""isElectric\"": false, \""isAvailable\"": true, \""battery\"": null }"",""{ \""dockNumber\"": 16, \""isElectric\"": false, \""isAvailable\"": true, \""battery\"": null }"",""{ \""dockNumber\"": 18, \""isElectric\"": false, \""isAvailable\"": true, \""battery\"": null }"",""{ \""dockNumber\"": 19, \""isElectric\"": false, \""isAvailable\"": true, \""battery\"": null }"",""{ \""dockNumber\"": 20, \""isElectric\"": false, \""isAvailable\"": true, \""battery\"": null }"",""{ \""dockNumber\"": 21, \""isElectric\"": false, \""isAvailable\"": true, \""battery\"": null }"",""{ \""dockNumber\"": 23, \""isElectric\"": false, \""isAvailable\"": true, \""battery\"": null }"",""{ \""dockNumber\"": 24, \""isElectric\"": false, \""isAvailable\"": true, \""battery\"": null }"",""{ \""dockNumber\"": 25, \""isElectric\"": false, \""isAvailable\"": false, \""battery\"": null }"",""{ \""dockNumber\"": 26, \""isElectric\"": false, \""isAvailable\"": true, \""battery\"": null }"",""{ \""dockNumber\"": 27, \""isElectric\"": false, \""isAvailable\"": false, \""battery\"": null }"",""{ \""dockNumber\"": 28, \""isElectric\"": false, \""isAvailable\"": true, \""battery\"": null }"",""{ \""dockNumber\"": 29, \""isElectric\"": true, \""isAvailable\"": true, \""battery\"": 0.80000000000000004 }"",""{ \""dockNumber\"": 30, \""isElectric\"": false, \""isAvailable\"": true, \""battery\"": null }""}",,,,false,false,3188,,,,,0,39.90471,-75.1734,
POINT(-75.16783 39.95405),3205,17th & JFK,"{-75.16783,39.95405}",20,16,3,2,0,1,3,17,FullService,Active,Active,1,1617 John F. Kennedy Blvd,Philadelphia,PA,19103,"{""{ \""dockNumber\"": 4, \""isElectric\"": false, \""isAvailable\"": true, \""battery\"": null }"",""{ \""dockNumber\"": 5, \""isElectric\"": false, \""isAvailable\"": true, \""battery\"": null }"",""{ \""dockNumber\"": 11, \""isElectric\"": false, \""isAvailable\"": false, \""battery\"": null }"",""{ \""dockNumber\"": 17, \""isElectric\"": true, \""isAvailable\"": true, \""battery\"": 0.80000000000000004 }""}",,,,false,false,3205,,,,,0,39.95405,-75.16783,
POINT(-75.14111 39.96207),3192,2nd & Fairmount,"{-75.14111,39.96207}",20,1,17,14,0,3,17,1,FullService,Active,Active,1,703 N 2nd St.,Philadelphia,PA,19125,"{""{ \""dockNumber\"": 1, \""isElectric\"": true, \""isAvailable\"": true, \""battery\"": 0.80000000000000004 }"",""{ \""dockNumber\"": 2, \""isElectric\"": false, \""isAvailable\"": true, \""battery\"": null }"",""{ \""dockNumber\"": 4, \""isElectric\"": false, \""isAvailable\"": false, \""battery\"": null }"",""{ \""dockNumber\"": 5, \""isElectric\"": false, \""isAvailable\"": true, \""battery\"": null }"",""{ \""dockNumber\"": 6, \""isElectric\"": false, \""isAvailable\"": true, \""battery\"": null }"",""{ \""dockNumber\"": 7, \""isElectric\"": false, \""isAvailable\"": true, \""battery\"": null }"",""{ \""dockNumber\"": 8, \""isElectric\"": false, \""isAvailable\"": true, \""battery\"": null }"",""{ \""dockNumber\"": 9, \""isElectric\"": false, \""isAvailable\"": false, \""battery\"": null }"",""{ \""dockNumber\"": 10, \""isElectric\"": false, \""isAvailable\"": true, \""battery\"": null }"",""{ \""dockNumber\"": 11, \""isElectric\"": true, \""isAvailable\"": true, \""battery\"": 0.80000000000000004 }"",""{ \""dockNumber\"": 12, \""isElectric\"": false, \""isAvailable\"": true, \""battery\"": null }"",""{ \""dockNumber\"": 13, \""isElectric\"": false, \""isAvailable\"": true, \""battery\"": null }"",""{ \""dockNumber\"": 14, \""isElectric\"": false, \""isAvailable\"": true, \""battery\"": null }"",""{ \""dockNumber\"": 15, \""isElectric\"": false, \""isAvailable\"": true, \""battery\"": null }"",""{ \""dockNumber\"": 16, \""isElectric\"": true, \""isAvailable\"": true, \""battery\"": 0.80000000000000004 }"",""{ \""dockNumber\"": 17, \""isElectric\"": false, \""isAvailable\"": true, \""battery\"": null }"",""{ \""dockNumber\"": 18, \""isElectric\"": false, \""isAvailable\"": true, \""battery\"": null }"",""{ \""dockNumber\"": 19, \""isElectric\"": false, \""isAvailable\"": true, \""battery\"": null }"",""{ \""dockNumber\"": 20, \""isElectric\"": false, \""isAvailable\"": true, \""battery\"": null }""}",,,,false,false,3192,,,,,0,39.96207,-75.14111,
POINT(-75.17477 39.98717),3196,25th & Diamond,"{-75.17477,39.98717}",17,8,7,6,0,1,7,9,FullService,Active,Active,1,2501 Diamond Street,Philadelphia,PA,19121,"{""{ \""dockNumber\"": 3, \""isElectric\"": false, \""isAvailable\"": true, \""battery\"": null }"",""{ \""dockNumber\"": 4, \""isElectric\"": true, \""isAvailable\"": false, \""battery\"": 0.80000000000000004 }"",""{ \""dockNumber\"": 7, \""isElectric\"": false, \""isAvailable\"": true, \""battery\"": null }"",""{ \""dockNumber\"": 9, \""isElectric\"": false, \""isAvailable\"": true, \""battery\"": null }"",""{ \""dockNumber\"": 11, \""isElectric\"": false, \""isAvailable\"": true, \""battery\"": null }"",""{ \""dockNumber\"": 13, \""isElectric\"": false, \""isAvailable\"": true, \""battery\"": null }"",""{ \""dockNumber\"": 14, \""isElectric\"": false, \""isAvailable\"": true, \""battery\"": null }"",""{ \""dockNumber\"": 15, \""isElectric\"": false, \""isAvailable\"": false, \""battery\"": null }"",""{ \""dockNumber\"": 16, \""isElectric\"": true, \""isAvailable\"": true, \""battery\"": 0.80000000000000004 }""}",,,,false,false,3196,,,,,0,39.98717,-75.17477,
POINT(-75.17033 39.92083),3197,Broad & Ritner,"{-75.17033,39.92083}",23,3,18,17,0,1,18,4,FullService,Active,Active,1,2301 S Broad St.,Philadelphia,PA,19148,"{""{ \""dockNumber\"": 2, \""isElectric\"": false, \""isAvailable\"": true, \""battery\"": null }"",""{ \""dockNumber\"": 3, \""isElectric\"": false, \""isAvailable\"": true, \""battery\"": null }"",""{ \""dockNumber\"": 4, \""isElectric\"": false, \""isAvailable\"": true, \""battery\"": null }"",""{ \""dockNumber\"": 5, \""isElectric\"": false, \""isAvailable\"": true, \""battery\"": null }"",""{ \""dockNumber\"": 6, \""isElectric\"": false, \""isAvailable\"": true, \""battery\"": null }"",""{ \""dockNumber\"": 7, \""isElectric\"": false, \""isAvailable\"": true, \""battery\"": null }"",""{ \""dockNumber\"": 8, \""isElectric\"": false, \""isAvailable\"": true, \""battery\"": null }"",""{ \""dockNumber\"": 9, \""isElectric\"": false, \""isAvailable\"": false, \""battery\"": null }"",""{ \""dockNumber\"": 10, \""isElectric\"": true, \""isAvailable\"": true, \""battery\"": 0.80000000000000004 }"",""{ \""dockNumber\"": 12, \""isElectric\"": false, \""isAvailable\"": true, \""battery\"": null }"",""{ \""dockNumber\"": 14, \""isElectric\"": false, \""isAvailable\"": true, \""battery\"": null }"",""{ \""dockNumber\"": 15, \""isElectric\"": false, \""isAvailable\"": true, \""battery\"": null }"",""{ \""dockNumber\"": 16, \""isElectric\"": false, \""isAvailable\"": true, \""battery\"": null }"",""{ \""dockNumber\"": 17, \""isElectric\"": false, \""isAvailable\"": false, \""battery\"": null }"",""{ \""dockNumber\"": 18, \""isElectric\"": false, \""isAvailable\"": true, \""battery\"": null }"",""{ \""dockNumber\"": 19, \""isElectric\"": false, \""isAvailable\"": true, \""battery\"": null }"",""{ \""dockNumber\"": 20, \""isElectric\"": false, \""isAvailable\"": true, \""battery\"": null }"",""{ \""dockNumber\"": 21, \""isElectric\"": false, \""isAvailable\"": true, \""battery\"": null }"",""{ \""dockNumber\"": 22, \""isElectric\"": false, \""isAvailable\"": true, \""battery\"": null }"",""{ \""dockNumber\"": 23, \""isElectric\"": false, \""isAvailable\"": true, \""battery\"": null }""}",,,,false,false,3197,,,,,0,39.92083,-75.17033,
POINT(-75.16846 39.97583),3200,Ridge & Master,"{-75.16846,39.97583}",17,14,3,2,0,1,3,14,FullService,Active,Active,1,2001 Ridge Ave.,Philadelphia,PA,19121,"{""{ \""dockNumber\"": 11, \""isElectric\"": false, \""isAvailable\"": true, \""battery\"": null }"",""{ \""dockNumber\"": 16, \""isElectric\"": true, \""isAvailable\"": true, \""battery\"": 0.80000000000000004 }"",""{ \""dockNumber\"": 17, \""isElectric\"": false, \""isAvailable\"": true, \""battery\"": null }""}",,,,false,false,3200,,,,,0,39.97583,-75.16846,
POINT(-75.1662 39.95523),3201,16th & Arch,"{-75.1662,39.95523}",20,17,2,2,0,0,2,18,FullService,Active,Active,1,107 16th Street,Philadelphia,PA,19102,"{""{ \""dockNumber\"": 2, \""isElectric\"": false, \""isAvailable\"": false, \""battery\"": null }"",""{ \""dockNumber\"": 16, \""isElectric\"": false, \""isAvailable\"": true, \""battery\"": null }"",""{ \""dockNumber\"": 20, \""isElectric\"": false, \""isAvailable\"": true, \""battery\"": null }""}",,,,false,false,3201,,,,,0,39.95523,-75.1662,
POINT(-75.16758 39.95134),3202,16th & Chestnut,"{-75.16758,39.95134}",21,18,3,3,0,0,3,18,FullService,Active,Active,1,1603 Chestnut St.,Philadelphia,PA,19102,"{""{ \""dockNumber\"": 1, \""isElectric\"": false, \""isAvailable\"": true, \""battery\"": null }"",""{ \""dockNumber\"": 2, \""isElectric\"": false, \""isAvailable\"": true, \""battery\"": null }"",""{ \""dockNumber\"": 3, \""isElectric\"": false, \""isAvailable\"": true, \""battery\"": null }""}",,,,false,false,3202,,,,,0,39.95134,-75.16758,
POINT(-75.17227 39.94077),3203,18th & Christian,"{-75.17227,39.94077}",20,10,8,8,0,0,9,10,FullService,Active,Active,1,1798 Christian St,Philadelphia,PA,19146,"{""{ \""dockNumber\"": 1, \""isElectric\"": false, \""isAvailable\"": true, \""battery\"": null }"",""{ \""dockNumber\"": 2, \""isElectric\"": false, \""isAvailable\"": true, \""battery\"": null }"",""{ \""dockNumber\"": 3, \""isElectric\"": false, \""isAvailable\"": true, \""battery\"": null }"",""{ \""dockNumber\"": 6, \""isElectric\"": true, \""isAvailable\"": false, \""battery\"": 0.25 }"",""{ \""dockNumber\"": 10, \""isElectric\"": false, \""isAvailable\"": true, \""battery\"": null }"",""{ \""dockNumber\"": 12, \""isElectric\"": false, \""isAvailable\"": true, \""battery\"": null }"",""{ \""dockNumber\"": 17, \""isElectric\"": false, \""isAvailable\"": true, \""battery\"": null }"",""{ \""dockNumber\"": 18, \""isElectric\"": false, \""isAvailable\"": true, \""battery\"": null }"",""{ \""dockNumber\"": 19, \""isElectric\"": false, \""isAvailable\"": false, \""battery\"": null }"",""{ \""dockNumber\"": 20, \""isElectric\"": false, \""isAvailable\"": true, \""battery\"": null }""}",,,,false,false,3203,,,,,0,39.94077,-75.17227,
POINT(-75.192 39.95441),3207,34th & Chestnut,"{-75.192,39.95441}",22,18,2,2,0,0,4,18,FullService,Active,Active,1,3400 Chestnut St,Philadelphia,PA,19104,"{""{ \""dockNumber\"": 1, \""isElectric\"": false, \""isAvailable\"": false, \""battery\"": null }"",""{ \""dockNumber\"": 2, \""isElectric\"": false, \""isAvailable\"": false, \""battery\"": null }"",""{ \""dockNumber\"": 10, \""isElectric\"": false, \""isAvailable\"": true, \""battery\"": null }"",""{ \""dockNumber\"": 17, \""isElectric\"": false, \""isAvailable\"": true, \""battery\"": null }""}",,,,false,false,3207,,,,,0,39.95441,-75.192,
POINT(-75.19324 39.95048),3208,34th & Spruce,"{-75.19324,39.95048}",28,25,0,0,0,0,0,27,FullService,Active,Active,1,3566 Spruce St,Philadelphia,PA,19104,"{""{ \""dockNumber\"": 14, \""isElectric\"": false, \""isAvailable\"": false, \""battery\"": null }"",""{ \""dockNumber\"": 20, \""isElectric\"": false, \""isAvailable\"": false, \""battery\"": null }"",""{ \""dockNumber\"": 24, \""isElectric\"": false, \""isAvailable\"": false, \""battery\"": null }""}",,,,false,false,3208,,,,,0,39.95048,-75.19324,
POINT(-75.21278 39.949),3209,45th & Baltimore,"{-75.21278,39.949}",14,5,7,4,0,3,9,5,FullService,Active,Active,1,980 45th St,Philadelphia,PA,19104,"{""{ \""dockNumber\"": 1, \""isElectric\"": true, \""isAvailable\"": true, \""battery\"": 0.80000000000000004 }"",""{ \""dockNumber\"": 2, \""isElectric\"": false, \""isAvailable\"": true, \""battery\"": null }"",""{ \""dockNumber\"": 3, \""isElectric\"": false, \""isAvailable\"": true, \""battery\"": null }"",""{ \""dockNumber\"": 4, \""isElectric\"": true, \""isAvailable\"": true, \""battery\"": 0.80000000000000004 }"",""{ \""dockNumber\"": 5, \""isElectric\"": true, \""isAvailable\"": true, \""battery\"": 0.80000000000000004 }"",""{ \""dockNumber\"": 6, \""isElectric\"": false, \""isAvailable\"": true, \""battery\"": null }"",""{ \""dockNumber\"": 8, \""isElectric\"": false, \""isAvailable\"": false, \""battery\"": null }"",""{ \""dockNumber\"": 10, \""isElectric\"": false, \""isAvailable\"": true, \""battery\"": null }"",""{ \""dockNumber\"": 13, \""isElectric\"": false, \""isAvailable\"": false, \""battery\"": null }""}",,,,false,false,3209,,,,,0,39.949,-75.21278,
POINT(-75.15668 39.98492),3210,Broad & Diamond,"{-75.15668,39.98492}",18,0,16,12,0,4,16,2,FullService,Active,Active,1,2108 N Broad St,Philadelphia,PA,19121,"{""{ \""dockNumber\"": 1, \""isElectric\"": true, \""isAvailable\"": true, \""battery\"": 0.80000000000000004 }"",""{ \""dockNumber\"": 2, \""isElectric\"": false, \""isAvailable\"": false, \""battery\"": null }"",""{ \""dockNumber\"": 3, \""isElectric\"": false, \""isAvailable\"": false, \""battery\"": null }"",""{ \""dockNumber\"": 4, \""isElectric\"": false, \""isAvailable\"": true, \""battery\"": null }"",""{ \""dockNumber\"": 5, \""isElectric\"": false, \""isAvailable\"": true, \""battery\"": null }"",""{ \""dockNumber\"": 6, \""isElectric\"": false, \""isAvailable\"": true, \""battery\"": null }"",""{ \""dockNumber\"": 7, \""isElectric\"": false, \""isAvailable\"": true, \""battery\"": null }"",""{ \""dockNumber\"": 8, \""isElectric\"": false, \""isAvailable\"": true, \""battery\"": null }"",""{ \""dockNumber\"": 9, \""isElectric\"": false, \""isAvailable\"": true, \""battery\"": null }"",""{ \""dockNumber\"": 10, \""isElectric\"": false, \""isAvailable\"": true, \""battery\"": null }"",""{ \""dockNumber\"": 11, \""isElectric\"": false, \""isAvailable\"": true, \""battery\"": null }"",""{ \""dockNumber\"": 12, \""isElectric\"": false, \""isAvailable\"": true, \""battery\"": null }"",""{ \""dockNumber\"": 13, \""isElectric\"": true, \""isAvailable\"": true, \""battery\"": 0.80000000000000004 }"",""{ \""dockNumber\"": 14, \""isElectric\"": false, \""isAvailable\"": true, \""battery\"": null }"",""{ \""dockNumber\"": 15, \""isElectric\"": false, \""isAvailable\"": true, \""battery\"": null }"",""{ \""dockNumber\"": 16, \""isElectric\"": false, \""isAvailable\"": true, \""battery\"": null }"",""{ \""dockNumber\"": 17, \""isElectric\"": true, \""isAvailable\"": true, \""battery\"": 0.80000000000000004 }"",""{ \""dockNumber\"": 18, \""isElectric\"": true, \""isAvailable\"": true, \""battery\"": 0.80000000000000004 }""}",,,,false,false,3210,,,,,0,39.98492,-75.15668,
POINT(-75.1706 39.97172),3211,Corinthian & Poplar,"{-75.1706,39.97172}",30,26,1,1,0,0,3,27,FullService,Active,Active,1,777 Corinthian Ave.,Philadelphia,PA,19130,"{""{ \""dockNumber\"": 3, \""isElectric\"": false, \""isAvailable\"": false, \""battery\"": null }"",""{ \""dockNumber\"": 5, \""isElectric\"": false, \""isAvailable\"": true, \""battery\"": null }"",""{ \""dockNumber\"": 7, \""isElectric\"": false, \""isAvailable\"": false, \""battery\"": null }"",""{ \""dockNumber\"": 10, \""isElectric\"": false, \""isAvailable\"": false, \""battery\"": null }""}",,,,false,false,3211,,,,,0,39.97172,-75.1706,
POINT(-75.18158 39.96379),3212,Schuylkill Banks Pergola,"{-75.18158,39.96379}",32,19,12,9,0,3,12,20,FullService,Active,Active,1,2600 Martin Luther King drive,Philadelphia,PA,19130,"{""{ \""dockNumber\"": 1, \""isElectric\"": false, \""isAvailable\"": true, \""battery\"": null }"",""{ \""dockNumber\"": 2, \""isElectric\"": false, \""isAvailable\"": true, \""battery\"": null }"",""{ \""dockNumber\"": 3, \""isElectric\"": true, \""isAvailable\"": true, \""battery\"": 0.80000000000000004 }"",""{ \""dockNumber\"": 5, \""isElectric\"": false, \""isAvailable\"": true, \""battery\"": null }"",""{ \""dockNumber\"": 8, \""isElectric\"": false, \""isAvailable\"": true, \""battery\"": null }"",""{ \""dockNumber\"": 11, \""isElectric\"": false, \""isAvailable\"": true, \""battery\"": null }"",""{ \""dockNumber\"": 13, \""isElectric\"": false, \""isAvailable\"": true, \""battery\"": null }"",""{ \""dockNumber\"": 14, \""isElectric\"": false, \""isAvailable\"": false, \""battery\"": null }"",""{ \""dockNumber\"": 15, \""isElectric\"": true, \""isAvailable\"": true, \""battery\"": 0.80000000000000004 }"",""{ \""dockNumber\"": 18, \""isElectric\"": false, \""isAvailable\"": true, \""battery\"": null }"",""{ \""dockNumber\"": 20, \""isElectric\"": true, \""isAvailable\"": true, \""battery\"": 0.80000000000000004 }"",""{ \""dockNumber\"": 23, \""isElectric\"": false, \""isAvailable\"": true, \""battery\"": null }"",""{ \""dockNumber\"": 26, \""isElectric\"": false, \""isAvailable\"": true, \""battery\"": null }""}",,,,false,false,3212,,,,,0,39.96379,-75.18158,
